OUTLETID,BUSNAME,ADDR1,CITY,STATE,ZIP,COLLECTIONHOURS1,COLLECTIONHOURS2,COLLECTIONHOURS3,COLLECTIONHOURS4,COLLECTIONHOURS5,COLLECTIONHOURS6,COLLECTIONHOURS7,LATITUDE,LONGITUDE
0763100010,USPS COLLECTION BOX - BLUE BOX,2 N VAN BRUNT ST,ENGLEWOOD,NJ,07631,MO 11:30 AM,TU 11:30 AM,WE 11:30 AM,TH 11:30 AM,FR 11:30 AM,SA 11:30 AM,,40.8944810836,-73.9752687752
0763100075,USPS COLLECTION BOX - BLUE BOX,18 E PALISADE AVE,ENGLEWOOD,NJ,07631,MO 11:00 AM,TU 11:00 AM,WE 11:00 AM,TH 11:00 AM,FR 11:00 AM,SA 11:00 AM,,40.893525,-73.9746225
0763100059,USPS COLLECTION BOX - BLUE BOX,201 S DEAN ST,ENGLEWOOD,NJ,07631,MO 01:00 PM,TU 01:00 PM,WE 01:00 PM,TH 01:00 PM,FR 01:00 PM,SA 01:00 PM,,40.8874659678,-73.9787898621
0766600022,USPS COLLECTION BOX - BLUE BOX,467 CEDAR LN # 2,TEANECK,NJ,07666,MO 11:00 AM,TU 11:00 AM,WE 11:00 AM,TH 11:00 AM,FR 11:00 AM,SA 11:00 AM,,40.8892312451,-74.0222443972
0763100086,USPS COLLECTION BOX - BLUE BOX,25 ROCKWOOD PLACE,ENGLEWOOD,NJ,07631,MO 10:00 AM,TU 10:00 AM,WE 10:00 AM,TH 10:00 AM,FR 10:00 AM,SA 10:00 AM,,40.879629,-73.9830915
0760300019,USPS COLLECTION BOX - BLUE BOX,262 PALISADE AVE,BOGOTA,NJ,07603,MO 01:00 PM,TU 01:00 PM,WE 01:00 PM,TH 01:00 PM,FR 01:00 PM,SA 12:00 PM,,40.875057,-74.026035
9818802172,USPS COLLECTION BOX - BLUE BOX,575 CORPORATE DR S,TUKWILA,WA,98188,MO 10:00 AM,TU 10:00 AM,WE 10:00 AM,TH 10:00 AM,FR 10:00 AM,SA 10:00 AM,,47.4492731639,-122.2546106221
9818802160,USPS COLLECTION BOX - BLUE BOX,436 MINKLER BLVD,TUKWILA,WA,98188,MO 10:00 AM,TU 10:00 AM,WE 10:00 AM,TH 10:00 AM,FR 10:00 AM,SA 10:00 AM,,47.4487777256,-122.2531381911
9810800718,USPS COLLECTION BOX - BLUE BOX,9627 DES MOINES MEMORIAL DR,SEATTLE,WA,98108,MO 10:45 AM,TU 10:45 AM,WE 10:45 AM,TH 10:45 AM,FR 10:45 AM,SA 10:30 AM,,47.515967142,-122.314552542
9800600006,USPS COLLECTION BOX - BLUE BOX,3550 FACTORIA BLVD SE,BELLEVUE,WA,98006,MO 03:00 PM,TU 03:00 PM,WE 03:00 PM,TH 03:00 PM,FR 03:00 PM,SA 11:30 AM,,47.578671,-122.1671835
9800500070,USPS COLLECTION BOX - BLUE BOX,3180 139TH AVE SE,BELLEVUE,WA,98005,MO 02:30 PM,TU 02:30 PM,WE 02:30 PM,TH 02:30 PM,FR 02:30 PM,,,47.5817879337,-122.1547813954
7750400019,USPS COLLECTION BOX - BLUE BOX,4120 FAIRMONT PKWY,PASADENA,TX,77504,MO 02:00 PM,TU 02:00 PM,WE 02:00 PM,TH 02:00 PM,FR 02:00 PM,,,29.650716801,-95.1810599695
5200100113,USPS COLLECTION BOX - BLUE BOX,2255 KERPER BLVD,DUBUQUE,IA,52001,MO 03:15 PM,TU 03:15 PM,WE 03:15 PM,TH 03:15 PM,FR 03:15 PM,SA 10:00 AM,,42.520611299,-90.654935194
5200100114,USPS COLLECTION BOX - BLUE BOX,2255 KERPER BLVD,DUBUQUE,IA,52001,MO 03:15 PM,TU 03:15 PM,WE 03:15 PM,TH 03:15 PM,FR 03:15 PM,SA 10:00 AM,,42.520763987,-90.655289018
3580800019,USPS COLLECTION BOX - BLUE BOX,5224 MARTIN RD,HUNTSVILLE,AL,35808,MO 03:00 PM,TU 03:00 PM,WE 03:00 PM,TH 03:00 PM,FR 03:00 PM,,,34.6707609588,-86.577260504
3208600020,USPS COLLECTION BOX - BLUE BOX,2121 US 1 S,ST AUGUSTINE,FL,32086,MO 05:00 PM,TU 05:00 PM,WE 05:00 PM,TH 05:00 PM,FR 05:00 PM,SA 02:00 PM,,29.8607467332,-81.3230706783
4503000014,USPS COLLECTION BOX - BLUE BOX,10905 SHAKER POINT WAY,HARRISON,OH,45030,MO 10:00 AM,TU 10:00 AM,WE 10:00 AM,TH 10:00 AM,FR 10:00 AM,SA 10:00 AM,,39.261168,-84.8036855023
1367600016,USPS COLLECTION BOX - BLUE BOX,1 BARRINGTON DR,POTSDAM,NY,13676,MO 10:00 AM,TU 10:00 AM,WE 10:00 AM,TH 10:00 AM,FR 10:00 AM,SA 10:00 AM,,44.6613748503,-74.9767665499
7703000073,USPS COLLECTION BOX - BLUE BOX,7200 CAMBRIDGE ST,HOUSTON,TX,77030,MO 04:00 PM,TU 04:00 PM,WE 04:00 PM,TH 04:00 PM,FR 04:00 PM,,,29.698829579,-95.393144944
2174200015,USPS COLLECTION BOX - BLUE BOX,1500 PENNSYLVANIA AVE,HAGERSTOWN,MD,21742,MO 09:00 AM,TU 09:00 AM,WE 09:00 AM,TH 09:00 AM,FR 09:00 AM,SA 09:00 AM,,39.6657657444,-77.7189239561
5254900003,USPS COLLECTION BOX - PO LOBBY,101 ALPINE STE 1,CINCINNATI,IA,52549,MO 10:45 AM,TU 10:45 AM,WE 10:45 AM,TH 10:45 AM,FR 10:45 AM,SA 10:45 AM,,40.6326299909,-92.9241999671
5254900004,USPS COLLECTION BOX - PO LOBBY,101 ALPINE STE 1,CINCINNATI,IA,52549,MO 11:00 AM,TU 11:00 AM,WE 11:00 AM,TH 11:00 AM,FR 11:00 AM,SA 11:00 AM,,40.6326299909,-92.9241999671
7314500011,USPS COLLECTION BOX - PO LOBBY,3681 H AVE (BLDG 478),OKC,OK,73145,MO 04:00 PM,TU 04:00 PM,WE 04:00 PM,TH 04:00 PM,FR 04:00 PM,,,35.428563983,-97.4004287957
7310200046,USPS COLLECTION BOX - BLUE BOX,1000 N LEE AVE,OKLAHOMA CITY,OK,73102,MO 04:15 PM,TU 04:15 PM,WE 04:15 PM,TH 04:15 PM,FR 04:15 PM,,,35.4782411246,-97.5242417363
0661400055,USPS COLLECTION BOX - APC,411 BARNUM RD,STRATFORD,CT,06614,MO 05:00 PM,TU 05:00 PM,WE 05:00 PM,TH 05:00 PM,FR 05:00 PM,SA 02:00 PM,,41.199008122,-73.14665682
0660500001,USPS COLLECTION BOX - BLUE BOX,919 FAIRFIELD AVE,BRIDGEPORT,CT,06605,MO 11:15 AM,TU 11:15 AM,WE 11:15 AM,TH 11:15 AM,FR 11:15 AM,SA 11:00 AM,,41.1743312663,-73.2021708855
0661100028,USPS COLLECTION BOX - BLUE BOX,888 WHITE PLAINS RD,TRUMBULL,CT,06611,MO 10:00 AM,TU 10:00 AM,WE 10:00 AM,TH 10:00 AM,FR 10:00 AM,SA 10:00 AM,,41.244512814,-73.196085238
2857300001,USPS COLLECTION BOX - BLUE BOX,125 MAIN ST,POLLOCKSVILLE,NC,28573,MO 04:45 PM,TU 04:45 PM,WE 04:45 PM,TH 04:45 PM,FR 04:45 PM,SA 10:30 AM,,35.008118655,-77.219807408
2857300002,USPS COLLECTION BOX - PO LOBBY,125 MAIN ST,POLLOCKSVILLE,NC,28573,MO 04:45 PM,TU 04:45 PM,WE 04:45 PM,TH 04:45 PM,FR 04:45 PM,SA 10:30 AM,,35.008118655,-77.2198074077
2857300003,USPS COLLECTION BOX - PO LOBBY,125 MAIN ST,POLLOCKSVILLE,NC,28573,MO 04:45 PM,TU 04:45 PM,WE 04:45 PM,TH 04:45 PM,FR 04:45 PM,SA 10:30 AM,,35.008118655,-77.2198074077
2857300004,USPS COLLECTION BOX - PO LOBBY,125 MAIN ST,POLLOCKSVILLE,NC,28573,MO 04:45 PM,TU 04:45 PM,WE 04:45 PM,TH 04:45 PM,FR 04:45 PM,SA 10:30 AM,,35.008118655,-77.2198074077
6270700004,USPS COLLECTION BOX - BLUE BOX,CAPITOL AIRPORT DR,SPRINGFIELD,IL,62707,MO 10:00 AM,TU 10:00 AM,WE 10:00 AM,TH 10:00 AM,FR 10:00 AM,,,39.8450133271,-89.6699858877
6066000062,USPS COLLECTION BOX - BLUE BOX,1723 W DEVON AVE,CHICAGO,IL,60660,MO 05:00 PM,TU 05:00 PM,WE 05:00 PM,TH 05:00 PM,FR 05:00 PM,SA 04:00 PM,,41.9980163908,-87.6730649512
6126500028,USPS COLLECTION BOX - BLUE BOX,4500 16TH ST,MOLINE,IL,61265,MO 10:00 AM,TU 10:00 AM,WE 10:00 AM,TH 10:00 AM,FR 10:00 AM,SA 10:00 AM,,41.468695571,-90.506972346
6126500029,USPS COLLECTION BOX - BLUE BOX,4515 34TH ST,MOLINE,IL,61265,MO 12:45 PM,TU 12:45 PM,WE 12:45 PM,TH 12:45 PM,FR 12:45 PM,SA 12:45 PM,,41.4681194751,-90.4909355069
6126500012,USPS COLLECTION BOX - BLUE BOX,1150 41ST ST,MOLINE,IL,61265,MO 10:00 AM,TU 10:00 AM,WE 10:00 AM,TH 10:00 AM,FR 10:00 AM,SA 10:00 AM,,41.500934141,-90.479841822
2760900045,USPS COLLECTION BOX - BLUE BOX,1637 N MARKET DR,RALEIGH,NC,27609,MO 11:00 AM,TU 11:00 AM,WE 11:00 AM,TH 11:00 AM,FR 11:00 AM,SA 10:00 AM,,35.8410756799,-78.6092656634
7303000010,USPS COLLECTION BOX - BLUE BOX,308 S 3RD ST,DAVIS,OK,73030,MO 12:00 PM,TU 12:00 PM,WE 12:00 PM,TH 12:00 PM,FR 12:00 PM,SA 12:00 PM,,34.502490634,-97.118510891
0288200014,USPS COLLECTION BOX - BLUE BOX,91 POINT JUDITH RD,NARRAGANSETT,RI,02882,MO 03:30 PM,TU 03:30 PM,WE 03:30 PM,TH 03:30 PM,FR 03:30 PM,SA 02:30 PM,,41.4281046217,-71.4808249036
0651100119,USPS COLLECTION BOX - BLUE BOX,600 PROSPECT ST,NEW HAVEN,CT,06511,MO 01:15 PM,TU 01:15 PM,WE 01:15 PM,TH 01:15 PM,FR 01:15 PM,SA 11:45 AM,,41.328272711,-72.922027035
0651400007,USPS COLLECTION BOX - BLUE BOX,60 CONNOLLY PKWY,NEW HAVEN,CT,06514,MO 11:00 AM,TU 11:00 AM,WE 11:00 AM,TH 11:00 AM,FR 11:00 AM,,,41.3666793419,-72.9183559066
0651900019,USPS COLLECTION BOX - BLUE BOX,100 CHURCH ST S,NEW HAVEN,CT,06519,MO 11:00 AM,TU 11:00 AM,WE 11:00 AM,TH 11:00 AM,FR 11:00 AM,SA 11:00 AM,,41.299686105,-72.929283168
0640100004,USPS COLLECTION BOX - BLUE BOX,314 MAIN ST,ANSONIA,CT,06401,MO 10:00 AM,TU 10:00 AM,WE 10:00 AM,TH 10:00 AM,FR 10:00 AM,SA 10:00 AM,,41.3415837308,-73.0782020579
2770400026,USPS COLLECTION BOX - BLUE BOX,3414 N DUKE ST,DURHAM,NC,27704,MO 04:00 PM,TU 04:00 PM,WE 04:00 PM,TH 04:00 PM,FR 04:00 PM,SA 10:00 AM,,36.047061,-78.9052095
2770100036,USPS COLLECTION BOX - BLUE BOX,1058 W CLUB BLVD,DURHAM,NC,27701,MO 03:00 PM,TU 03:00 PM,WE 03:00 PM,TH 03:00 PM,FR 03:00 PM,SA 10:00 AM,,36.0169584955,-78.9097914271
2770700046,USPS COLLECTION BOX - BLUE BOX,1201 UNIVERSITY DR,DURHAM,NC,27707,MO 03:00 PM,TU 03:00 PM,WE 03:00 PM,TH 03:00 PM,FR 03:00 PM,SA 10:00 AM,,35.9854819461,-78.9102290571
7353300008,USPS COLLECTION BOX - BLUE BOX,1407 N WHISENANT DR,DUNCAN,OK,73533,MO 04:30 PM,TU 04:30 PM,WE 04:30 PM,TH 04:30 PM,FR 04:30 PM,,,34.5200051317,-97.975059449
7744900002,USPS COLLECTION BOX - BLUE BOX,1805 N MASON RD,KATY,TX,77449,MO 02:15 PM,TU 02:15 PM,WE 02:15 PM,TH 02:15 PM,FR 02:15 PM,,,29.7993385321,-95.7520705879
7707900086,USPS COLLECTION BOX - BLUE BOX,13900 KATY FWY,HOUSTON,TX,77079,MO 03:00 PM,TU 03:00 PM,WE 03:00 PM,TH 03:00 PM,FR 03:00 PM,,,29.786409,-95.63058
7709500001,USPS COLLECTION BOX - BLUE BOX,7200 CREEK CREST DR,HOUSTON,TX,77095,MO 01:30 PM,TU 01:30 PM,WE 01:30 PM,TH 01:30 PM,FR 01:30 PM,,,29.882914791,-95.62875103
7706500006,USPS COLLECTION BOX - BLUE BOX,11250 WEST RD,HOUSTON,TX,77065,MO 12:15 PM,TU 12:15 PM,WE 12:15 PM,TH 12:15 PM,FR 12:15 PM,,,29.909481935,-95.589227907
8320100001,USPS COLLECTION BOX - BLUE BOX,1000 POCATELLO CREEK RD,POCATELLO,ID,83201,MO 05:00 PM,TU 05:00 PM,WE 05:00 PM,TH 05:00 PM,FR 05:00 PM,SA 02:45 PM,,42.8928856612,-112.4408409773
4837700029,USPS COLLECTION BOX - BLUE BOX,29300 DOUGLAS DR,NOVI,MI,48377,MO 10:00 AM,TU 10:00 AM,WE 10:00 AM,TH 10:00 AM,FR 10:00 AM,,,42.5089299158,-83.4599527217
0647000009,USPS COLLECTION BOX - BLUE BOX,228 S MAIN ST,SANDY HOOK,CT,06470,MO 12:00 PM,TU 12:00 PM,WE 12:00 PM,TH 12:00 PM,FR 12:00 PM,SA 12:00 PM,,41.37541641,-73.2721854121
0647000012,USPS COLLECTION BOX - BLUE BOX,45 MAIN ST,SANDY HOOK,CT,06470,MO 12:00 PM,TU 12:00 PM,WE 12:00 PM,TH 12:00 PM,FR 12:00 PM,SA 12:00 PM,,41.415158917,-73.310017432
0681000057,USPS COLLECTION BOX - BLUE BOX,1 PADANARAM,DANBURY,CT,06810,MO 11:00 AM,TU 11:00 AM,WE 11:00 AM,TH 11:00 AM,FR 11:00 AM,SA 11:00 AM,,41.415003,-73.456515
0682400013,USPS COLLECTION BOX - BLUE BOX,1485 BLACK ROCK,FAIRFIELD,CT,06824,MO 01:45 PM,TU 01:45 PM,WE 01:45 PM,TH 01:45 PM,FR 01:45 PM,SA 02:00 PM,,41.177200297,-73.2415504591
5315000005,USPS COLLECTION BOX - BLUE BOX,S63W13660 JANESVILLE RD,MUSKEGO,WI,53150,MO 11:30 AM,TU 11:30 AM,WE 11:30 AM,TH 11:30 AM,FR 11:30 AM,SA 11:30 AM,,42.9283926512,-88.0847871159
0570100052,USPS COLLECTION BOX - BLUE BOX,308 US ROUTE 7,RUTLAND,VT,05701,MO 10:00 AM,TU 10:00 AM,WE 10:00 AM,TH 10:00 AM,FR 10:00 AM,SA 10:00 AM,,43.586167326,-72.968255516
5110100042,USPS COLLECTION BOX - BLUE BOX,620 NEBRASKA ST,SIOUX CITY,IA,51101,MO 05:00 PM,TU 05:00 PM,WE 05:00 PM,TH 05:00 PM,FR 05:00 PM,SA 05:00 PM,,42.496884367,-96.4034134488
7705600160,USPS COLLECTION BOX - BLUE BOX,5065 WESTHEIMER RD,HOUSTON,TX,77056,MO 03:30 PM,TU 03:30 PM,WE 03:30 PM,TH 03:30 PM,FR 03:30 PM,,,29.740644955,-95.463118868
0213200036,USPS COLLECTION BOX - BLUE BOX,200 LAGRANGE ST,WEST ROXBURY,MA,02132,MO 01:00 PM,TU 01:00 PM,WE 01:00 PM,TH 01:00 PM,FR 01:00 PM,SA 01:00 PM,,42.27601564,-71.151462115
3034500005,USPS COLLECTION BOX - BLUE BOX,2150 PARKLAKE DR NE,ATLANTA,GA,30345,MO 12:00 PM,TU 12:00 PM,WE 12:00 PM,TH 12:00 PM,FR 12:00 PM,SA 12:00 PM,,33.847912433,-84.2493532279
6852100027,USPS COLLECTION BOX - BLUE BOX,755 FALLBROOK BLVD,LINCOLN,NE,68521,MO 10:00 AM,TU 10:00 AM,WE 10:00 AM,TH 10:00 AM,FR 10:00 AM,SA 10:00 AM,,40.877584322,-96.730755089
9300100065,USPS COLLECTION BOX - BLUE BOX,2300 ALESSANDRO DR,VENTURA,CA,93001,MO 03:00 PM,TU 03:00 PM,WE 03:00 PM,TH 03:00 PM,FR 03:00 PM,SA 03:00 PM,,34.2662439617,-119.2690402595
9300300146,USPS COLLECTION BOX - BLUE BOX,2500 E THOMPSON BLVD,VENTURA,CA,93003,MO 03:00 PM,TU 03:00 PM,WE 03:00 PM,TH 03:00 PM,FR 03:00 PM,SA 03:00 PM,,34.2728288745,-119.2629767678
1197000000,USPS COLLECTION BOX - BLUE BOX,70 2ND ST,SOUTH JAMESPORT,NY,11970,MO 04:00 PM,TU 04:00 PM,WE 04:00 PM,TH 04:00 PM,FR 04:00 PM,SA 12:00 PM,,40.9369833854,-72.5762112513
1197000002,USPS COLLECTION BOX - PO LOBBY,70 2 ND ST,SOUTH JAMESPORT,NY,11970,MO 04:00 PM,TU 04:00 PM,WE 04:00 PM,TH 04:00 PM,FR 04:00 PM,SA 12:00 PM,,40.936983385,-72.576211251
1197000003,USPS COLLECTION BOX - PO LOBBY,70 2ND ST,SOUTH JAMESPORT,NY,11970,MO 05:00 PM,TU 05:00 PM,WE 05:00 PM,TH 05:00 PM,FR 05:00 PM,SA 12:00 PM,,40.936983385,-72.576211251
6573400003,USPS COLLECTION BOX - PO LOBBY,100 E WASHINGTON ST,PURDY,MO,65734,MO 11:00 AM,TU 11:00 AM,WE 11:00 AM,TH 11:00 AM,FR 11:00 AM,SA 10:45 AM,,36.8170380511,-93.914081084
6173100000,USPS COLLECTION BOX - BLUE BOX,146 MAIN ST,CROPSEY,IL,61731,MO 04:00 PM,TU 04:00 PM,WE 04:00 PM,TH 04:00 PM,FR 04:00 PM,SA 12:15 PM,,40.6081043233,-88.4807049611
6173100002,USPS COLLECTION BOX - PO LOBBY,146 MAIN ST,CROPSEY,IL,61731,MO 03:45 PM,TU 03:45 PM,WE 03:45 PM,TH 03:45 PM,FR 03:45 PM,SA 12:15 PM,,40.6081043233,-88.4807049611
6173100003,USPS COLLECTION BOX - PO LOBBY,146 MAIN ST,CROPSEY,IL,61731,MO 04:00 PM,TU 04:00 PM,WE 04:00 PM,TH 04:00 PM,FR 04:00 PM,SA 12:30 PM,,40.6081043233,-88.4807049611
4200200095,USPS COLLECTION BOX - BLUE BOX,6135 BENTON RD,PADUCAH,KY,42002,MO 04:30 PM,TU 04:30 PM,WE 04:30 PM,TH 04:30 PM,FR 04:30 PM,SA 03:15 PM,,37.0038364063,-88.5299319284
0190100047,USPS COLLECTION BOX - BLUE BOX,137 EUCLID AVE,LYNN,MA,01901,MO 12:00 PM,TU 12:00 PM,WE 12:00 PM,TH 12:00 PM,FR 12:00 PM,SA 12:00 PM,,42.485589,-70.9510005
0825200006,USPS COLLECTION BOX - PO LOBBY,6 E MAIN ST,WHITESBORO,NJ,08252,MO 12:00 PM,TU 12:00 PM,WE 12:00 PM,TH 12:00 PM,FR 12:00 PM,SA 12:00 PM,,39.0304272565,-74.8619032402
0825200007,USPS COLLECTION BOX - BLUE BOX,6 E MAIN ST,WHITESBORO,NJ,08252,MO 12:00 PM,TU 12:00 PM,WE 12:00 PM,TH 12:00 PM,FR 12:00 PM,SA 12:00 PM,,39.0304272565,-74.8619032402
0825200008,USPS COLLECTION BOX - PO LOBBY,6 E MAIN ST,WHITESBORO,NJ,08252,MO 12:00 PM,TU 12:00 PM,WE 12:00 PM,TH 12:00 PM,FR 12:00 PM,SA 12:00 PM,,39.0304272565,-74.8619032402
1102000099,USPS COLLECTION BOX - BLUE BOX,1010 NORTHERN BLVD,GREAT NECK,NY,11020,MO 05:00 PM,TU 05:00 PM,WE 05:00 PM,TH 05:00 PM,FR 05:00 PM,SA 12:00 PM,,40.7854237088,-73.7073311128
1102000100,USPS COLLECTION BOX - BLUE BOX,1010 NORTHERN BLVD,GREAT NECK,NY,11020,MO 05:00 PM,TU 05:00 PM,WE 05:00 PM,TH 05:00 PM,FR 05:00 PM,SA 12:00 PM,,40.785423709,-73.707331113
1102000139,USPS COLLECTION BOX - BLUE BOX,1010 NORTHERN BLVD,GREAT NECK,NY,11020,MO 05:00 PM,TU 05:00 PM,WE 05:00 PM,TH 05:00 PM,FR 05:00 PM,SA 12:00 PM,,40.785423709,-73.707331113
1102000144,USPS COLLECTION BOX - BLUE BOX,1010 NORTHERN BLVD,GREAT NECK,NY,11020,MO 05:00 PM,TU 05:00 PM,WE 05:00 PM,TH 05:00 PM,FR 05:00 PM,SA 12:00 PM,,40.785423709,-73.707331113
7000500041,USPS COLLECTION BOX - BLUE BOX,1521 METAIRIE RD,METAIRIE,LA,70005,MO 11:45 AM,TU 11:45 AM,WE 11:45 AM,TH 11:45 AM,FR 11:45 AM,SA 10:45 AM,,29.98746,-90.1406745
1914500120,USPS COLLECTION BOX - BLUE BOX,1998 MOORE ST,PHILA,PA,19145,MO 09:00 AM,TU 09:00 AM,WE 09:00 AM,TH 09:00 AM,FR 09:00 AM,SA 09:00 AM,,39.9291542331,-75.1783542475
1914700100,USPS COLLECTION BOX - BLUE BOX,1200 FEDERAL ST,PHILA,PA,19147,MO 03:00 PM,TU 03:00 PM,WE 03:00 PM,TH 03:00 PM,FR 03:00 PM,SA 01:00 PM,,39.934962,-75.163698
1471700005,USPS COLLECTION BOX - PO LOBBY,8915 STATE ROUTE 19,CANEADEA,NY,14717,MO 02:00 PM,TU 02:00 PM,WE 02:00 PM,TH 02:00 PM,FR 02:00 PM,SA 12:00 PM,,42.3881070921,-78.1531580917
4021700004,USPS COLLECTION BOX - BLUE BOX,3 AUDUBON PLAZA DR,LOUISVILLE,KY,40217,MO 12:00 PM,TU 12:00 PM,WE 12:00 PM,TH 12:00 PM,FR 12:00 PM,SA 12:00 PM,,38.213847,-85.7219895
2590800003,USPS COLLECTION BOX - BLUE BOX,127 EPPERLY RD,PRINCEWICK,WV,25908,MO 11:30 AM,TU 11:30 AM,WE 11:30 AM,TH 11:30 AM,FR 11:30 AM,SA 09:30 AM,,37.6597929303,-81.2256821708
2590800004,USPS COLLECTION BOX - PO LOBBY,127 EPPERLY RD,PRINCEWICK,WV,25908,MO 11:30 AM,TU 11:30 AM,WE 11:30 AM,TH 11:30 AM,FR 11:30 AM,SA 09:30 AM,,37.6597929303,-81.2256821708
2590800005,USPS COLLECTION BOX - PO LOBBY,127 EPPERLY RD,PRINCEWICK,WV,25908,MO 12:00 PM,TU 12:00 PM,WE 12:00 PM,TH 12:00 PM,FR 12:00 PM,SA 10:00 AM,,37.6597929303,-81.2256821708
8951100028,USPS COLLECTION BOX - BLUE BOX,10315 PROFESSIONAL CIR,RENO,NV,89511,MO 03:15 PM,TU 03:15 PM,WE 03:15 PM,TH 03:15 PM,FR 03:15 PM,,,39.4321496295,-119.7569154164
8970600012,USPS COLLECTION BOX - BLUE BOX,2621 NORTHGATE LN,CARSON CITY,NV,89706,MO 03:50 PM,TU 03:50 PM,WE 03:50 PM,TH 03:50 PM,FR 03:50 PM,,,39.183813,-119.765950981
8951100006,USPS COLLECTION BOX - BLUE BOX,8175 S VIRGINIA ST,RENO,NV,89511,MO 03:00 PM,TU 03:00 PM,WE 03:00 PM,TH 03:00 PM,FR 03:00 PM,SA 12:45 PM,,39.452616,-119.779074
8950200006,USPS COLLECTION BOX - BLUE BOX,1575 DELUCCHI LN,RENO,NV,89502,MO 04:15 PM,TU 04:15 PM,WE 04:15 PM,TH 04:15 PM,FR 04:15 PM,SA 01:15 PM,,39.469609453,-119.776275
3341000004,USPS COLLECTION BOX - BLUE BOX,11380 PROSPERITY FARMS RD,WEST PALM BEACH,FL,33410,MO 01:00 PM,TU 01:00 PM,WE 01:00 PM,TH 01:00 PM,FR 01:00 PM,SA 01:00 PM,,26.841753,-80.071695
3346100026,USPS COLLECTION BOX - BLUE BOX,5055 S CONGRESS AVE,GREENACRES,FL,33461,MO 12:00 PM,TU 12:00 PM,WE 12:00 PM,TH 12:00 PM,FR 12:00 PM,SA 12:00 PM,,26.60301,-80.090847
3345800021,USPS COLLECTION BOX - BLUE BOX,2885 JUPITER PARK DR,JUPITER,FL,33458,MO 03:00 PM,TU 03:00 PM,WE 03:00 PM,TH 03:00 PM,FR 03:00 PM,SA 03:00 PM,,26.928342,-80.141004
3345800018,USPS COLLECTION BOX - BLUE BOX,901 W INDIANTOWN RD,JUPITER,FL,33458,MO 03:00 PM,TU 03:00 PM,WE 03:00 PM,TH 03:00 PM,FR 03:00 PM,SA 03:00 PM,,26.934651,-80.111394
2990500005,USPS COLLECTION BOX - BLUE BOX,8740 WAKE BLVD,BEAUFORT,SC,29905,MO 03:00 PM,TU 03:00 PM,WE 03:00 PM,TH 03:00 PM,FR 03:00 PM,SA 03:00 PM,,32.339775443,-80.69852879
2990500004,USPS COLLECTION BOX - BLUE BOX,6012 PANAMA DR,BEAUFORT,SC,29905,MO 03:00 PM,TU 03:00 PM,WE 03:00 PM,TH 03:00 PM,FR 03:00 PM,SA 03:00 PM,,32.3494243336,-80.6856062262
2990500006,USPS COLLECTION BOX - BLUE BOX,6012 PANAMA DR,BEAUFORT,SC,29905,MO 03:00 PM,TU 03:00 PM,WE 03:00 PM,TH 03:00 PM,FR 03:00 PM,SA 03:00 PM,,32.349424334,-80.685606226
2990500003,USPS COLLECTION BOX - BLUE BOX,683 SHANGHAI ST,BEAUFORT,SC,29905,MO 03:00 PM,TU 03:00 PM,WE 03:00 PM,TH 03:00 PM,FR 03:00 PM,SA 03:00 PM,,32.3471142192,-80.6838132124
2990500007,USPS COLLECTION BOX - BLUE BOX,683 SHANGHAI ST,BEAUFORT,SC,29905,MO 03:00 PM,TU 03:00 PM,WE 03:00 PM,TH 03:00 PM,FR 03:00 PM,SA 03:00 PM,,32.347114219,-80.683813212
2990500001,USPS COLLECTION BOX - BLUE BOX,590 GUANTANAMO ST,BEAUFORT,SC,29905,MO 03:00 PM,TU 03:00 PM,WE 03:00 PM,TH 03:00 PM,FR 03:00 PM,SA 03:00 PM,,32.352563802,-80.683386582
2990500002,USPS COLLECTION BOX - BLUE BOX,926 SANTO DOMINGO,BEAUFORT,SC,29905,MO 03:00 PM,TU 03:00 PM,WE 03:00 PM,TH 03:00 PM,FR 03:00 PM,SA 03:00 PM,,32.346037708,-80.675344204
2990200095,USPS COLLECTION BOX - BLUE BOX,149 CORREGIDOR ST,BEAUFORT,SC,29902,MO 03:30 PM,TU 03:30 PM,WE 03:30 PM,TH 03:30 PM,FR 03:30 PM,SA 03:00 PM,,32.3506064924,-80.6744606647
2003700086,USPS COLLECTION BOX - BLUE BOX,2601 VIRGINIA AVE NW,WASHINGTON,DC,20037,MO 12:00 PM,TU 12:00 PM,WE 12:00 PM,TH 12:00 PM,FR 12:00 PM,SA 12:40 PM,,38.900295,-77.055354
5165400004,USPS COLLECTION BOX - PO LOBBY,611 WEST ST,THURMAN,IA,51654,MO 11:45 AM,TU 11:45 AM,WE 11:45 AM,TH 11:45 AM,FR 11:45 AM,SA 10:45 AM,,40.8219117485,-95.7539048236
5165400005,USPS COLLECTION BOX - BLUE BOX,611 WEST ST,THURMAN,IA,51654,MO 03:15 PM,TU 03:15 PM,WE 03:15 PM,TH 03:15 PM,FR 03:15 PM,SA 03:15 PM,,40.8219117485,-95.7539048236
5165400007,USPS COLLECTION BOX - PO LOBBY,611 WEST ST,THURMAN,IA,51654,MO 11:45 AM,TU 11:45 AM,WE 11:45 AM,TH 11:45 AM,FR 11:45 AM,SA 10:45 AM,,40.8219117485,-95.7539048236
5164000004,USPS COLLECTION BOX - BLUE BOX,308 F ST,HAMBURG,IA,51640,MO 03:35 PM,TU 03:35 PM,WE 03:35 PM,TH 03:35 PM,FR 03:35 PM,SA 03:35 PM,,40.604874813,-95.65619731
5164000009,USPS COLLECTION BOX - PO LOBBY,308 F ST,HAMBURG,IA,51640,MO 03:00 PM,TU 03:00 PM,WE 03:00 PM,TH 03:00 PM,FR 03:00 PM,SA 10:45 AM,,40.604874813,-95.65619731
5164000010,USPS COLLECTION BOX - PO LOBBY,308 F ST,HAMBURG,IA,51640,MO 03:00 PM,TU 03:00 PM,WE 03:00 PM,TH 03:00 PM,FR 03:00 PM,SA 10:45 AM,,40.604874813,-95.65619731
4623100001,USPS COLLECTION BOX - BLUE BOX,7610 W WASHINGTON ST,INDIANAPOLIS,IN,46231,MO 04:00 PM,TU 04:00 PM,WE 04:00 PM,TH 04:00 PM,FR 04:00 PM,SA 12:00 PM,,39.740562,-86.2945785
5253600000,USPS COLLECTION BOX - BLUE BOX,104 W. STATE STREET,BLAKESBURG,IA,52536,MO 03:30 PM,TU 03:30 PM,WE 03:30 PM,TH 03:30 PM,FR 03:30 PM,SA 03:30 PM,,40.9641305115,-92.6369319446
5057900008,USPS COLLECTION BOX - BLUE BOX,416 4TH ST,ROCKWELL CITY,IA,50579,MO 11:15 AM,TU 11:15 AM,WE 11:15 AM,TH 11:15 AM,FR 11:15 AM,SA 11:15 AM,,42.395202,-94.6334882357
5059300002,USPS COLLECTION BOX - PO LOBBY,205 MAIN ST,VARINA,IA,50593,MO 11:45 AM,TU 11:45 AM,WE 11:45 AM,TH 11:45 AM,FR 11:45 AM,SA 11:45 AM,,42.6581797402,-94.8978284273
5059300003,USPS COLLECTION BOX - BLUE BOX,205 MAIN ST,VARINA,IA,50593,MO 11:45 AM,TU 11:45 AM,WE 11:45 AM,TH 11:45 AM,FR 11:45 AM,SA 11:45 AM,,42.6581797402,-94.8978284273
5059300004,USPS COLLECTION BOX - PO LOBBY,205 MAIN ST,VARINA,IA,50593,MO 12:00 PM,TU 12:00 PM,WE 12:00 PM,TH 12:00 PM,FR 12:00 PM,SA 12:00 PM,,42.6581797402,-94.8978284273
4443200003,USPS COLLECTION BOX - BLUE BOX,118 E LINCOLN WAY,LISBON,OH,44432,MO 03:00 PM,TU 03:00 PM,WE 03:00 PM,TH 03:00 PM,FR 03:00 PM,SA 03:00 PM,,40.7721485179,-80.7671202799
2203300072,USPS COLLECTION BOX - PO LOBBY,12306 LEE HWY,FAIRFAX,VA,22033,MO 04:30 PM,TU 04:30 PM,WE 04:30 PM,TH 04:30 PM,FR 04:30 PM,SA 03:30 PM,,38.8464786057,-77.3692272776
5710500049,USPS COLLECTION BOX - BLUE BOX,2505 W 41ST ST,SIOUX FALLS,SD,57105,MO 04:15 PM,TU 04:15 PM,WE 04:15 PM,TH 04:15 PM,FR 04:15 PM,SA 05:00 PM,,43.514019,-96.7564665
5706500000,USPS COLLECTION BOX - BLUE BOX,107 W 3RD ST,TRENT,SD,57065,MO 04:30 PM,TU 04:30 PM,WE 04:30 PM,TH 04:30 PM,FR 04:30 PM,SA 05:00 PM,,43.9061873074,-96.6539288407
5706500001,USPS COLLECTION BOX - PO LOBBY,107 W 3RD ST,TRENT,SD,57065,MO 04:45 PM,TU 04:45 PM,WE 04:45 PM,TH 04:45 PM,FR 04:45 PM,,,43.906187307,-96.653928841
0160800029,USPS COLLECTION BOX - BLUE BOX,311 MAIN ST,WORCESTER,MA,01608,MO 12:30 PM,TU 12:30 PM,WE 12:30 PM,TH 12:30 PM,FR 12:30 PM,SA 12:00 PM,,42.265935,-71.800848
9286700010,USPS COLLECTION BOX - BLUE BOX,2808 E KATELLA AVE,ORANGE,CA,92867,MO 10:00 AM,TU 10:00 AM,WE 10:00 AM,TH 10:00 AM,FR 10:00 AM,SA 10:00 AM,,33.8102595068,-117.8234415
1002300015,USPS COLLECTION BOX - BLUE BOX,1861 BROADWAY,NEW YORK,NY,10023,MO 01:15 PM,TU 01:15 PM,WE 01:15 PM,TH 01:15 PM,FR 01:15 PM,SA 11:00 AM,,40.7698480687,-73.9822779742
1001900016,USPS COLLECTION BOX - BLUE BOX,706 5TH AVE,NEW YORK,NY,10019,MO 04:00 PM,TU 04:00 PM,WE 04:00 PM,TH 04:00 PM,FR 04:00 PM,SA 03:00 PM,,40.7618827605,-73.9748300292
4472100008,USPS COLLECTION BOX - BLUE BOX,6336 MIDDLEBRANCH AVE NE,CANTON,OH,44721,MO 12:15 PM,TU 12:15 PM,WE 12:15 PM,TH 12:15 PM,FR 12:15 PM,SA 12:15 PM,,40.8728731224,-81.3343065937
4101100101,USPS COLLECTION BOX - BLUE BOX,1840 SIMON KENTON WAY,FT WRIGHT,KY,41011,MO 11:00 AM,TU 11:00 AM,WE 11:00 AM,TH 11:00 AM,FR 11:00 AM,SA 11:00 AM,,39.058472648,-84.539656324
4101100102,USPS COLLECTION BOX - BLUE BOX,1840 SIMON KENTON WAY,FT WRIGHT,KY,41011,MO 11:00 AM,TU 11:00 AM,WE 11:00 AM,TH 11:00 AM,FR 11:00 AM,SA 11:00 AM,,39.058472648,-84.539656324
5540200091,USPS COLLECTION BOX - BLUE BOX,110 S. 8TH ST,MINNEAPOLIS,MN,55402,MO 05:00 PM,TU 05:00 PM,WE 05:00 PM,TH 05:00 PM,FR 05:00 PM,SA 12:00 PM,,44.975336663,-93.271438113
5540200092,USPS COLLECTION BOX - BLUE BOX,110 S 8TH ST,MINNEAPOLIS,MN,55402,MO 05:00 PM,TU 05:00 PM,WE 05:00 PM,TH 05:00 PM,FR 05:00 PM,SA 12:00 PM,,44.975336663,-93.271438113
6180100074,USPS COLLECTION BOX - BLUE BOX,498 S WRIGHT ST,URBANA,IL,61801,MO 04:45 PM,TU 04:45 PM,WE 04:45 PM,TH 04:45 PM,FR 04:45 PM,SA 02:00 PM,,40.11275191,-88.228851322
5371800016,USPS COLLECTION BOX - BLUE BOX,4902 N BILTMORE LN,MADISON,WI,53718,MO 11:30 AM,TU 11:30 AM,WE 11:30 AM,TH 11:30 AM,FR 11:30 AM,SA 11:30 AM,,43.1521456585,-89.2962900844
2485300004,USPS COLLECTION BOX - BLUE BOX,28499 COAL HERITAGE RD,KIMBALL,WV,24853,MO 11:45 AM,TU 11:45 AM,WE 11:45 AM,TH 11:45 AM,FR 11:45 AM,SA 11:00 AM,,37.4194177408,-81.4970165412
2485300005,USPS COLLECTION BOX - PO LOBBY,28499 COAL HERITAGE RD,KIMBALL,WV,24853,MO 11:45 AM,TU 11:45 AM,WE 11:45 AM,TH 11:45 AM,FR 11:45 AM,SA 11:00 AM,,37.419417741,-81.497016541
2485300006,USPS COLLECTION BOX - PO LOBBY,28499 COAL HERITAGE RD,KIMBALL,WV,24853,MO 12:00 PM,TU 12:00 PM,WE 12:00 PM,TH 12:00 PM,FR 12:00 PM,SA 11:00 AM,,37.419417741,-81.497016541
4622000049,USPS COLLECTION BOX - BLUE BOX,6284 RUCKER RD,INDIANAPOLIS,IN,46220,MO 03:00 PM,TU 03:00 PM,WE 03:00 PM,TH 03:00 PM,FR 03:00 PM,SA 03:00 PM,,39.8700136939,-86.0793573206
1375100004,USPS COLLECTION BOX - PO LOBBY,11892 STATE HIGHWAY 23,DAVENPORT CENTER,NY,13751,MO 11:30 AM,TU 11:30 AM,WE 11:30 AM,TH 11:30 AM,FR 11:30 AM,SA 10:45 AM,,42.449548623,-74.913009099
1241200002,USPS COLLECTION BOX - PO LOBBY,4117 STATE ROUTE 28 LBBY SLOT,BOICEVILLE,NY,12412,MO 05:00 PM,TU 05:00 PM,WE 05:00 PM,TH 05:00 PM,FR 05:00 PM,SA 12:00 PM,,42.0077707812,-74.2673794575
4425600076,USPS COLLECTION BOX - BLUE BOX,132 N ELMWOOD AVE,MEDINA,OH,44256,MO 01:00 PM,TU 01:00 PM,WE 01:00 PM,TH 01:00 PM,FR 01:00 PM,SA 01:00 PM,,41.14035,-81.8655255
1970200010,USPS COLLECTION BOX - BLUE BOX,2102 ASHKIRK DR,NEWARK,DE,19702,MO 10:00 AM,TU 10:00 AM,WE 10:00 AM,TH 10:00 AM,FR 10:00 AM,SA 10:00 AM,,39.612618,-75.7058985
7866400059,USPS COLLECTION BOX - BLUE BOX,1101 N GEORGETOWN ST,ROUND ROCK,TX,78664,MO 04:15 PM,TU 04:15 PM,WE 04:15 PM,TH 04:15 PM,FR 04:15 PM,SA 04:15 PM,,30.520449,-97.671343031
7872900003,USPS COLLECTION BOX - BLUE BOX,8500 CAHILL DR,AUSTIN,TX,78729,MO 02:00 PM,TU 02:00 PM,WE 02:00 PM,TH 02:00 PM,FR 02:00 PM,SA 12:30 PM,,30.445123944,-97.773363529
7875700020,USPS COLLECTION BOX - BLUE BOX,7920 ROCKWOOD LN,AUSTIN,TX,78757,MO 12:30 PM,TU 12:30 PM,WE 12:30 PM,TH 12:30 PM,FR 12:30 PM,SA 01:30 PM,,30.3610379501,-97.7374525217
7875800016,USPS COLLECTION BOX - BLUE BOX,8557 RESEARCH BLVD,AUSTIN,TX,78758,MO 05:00 PM,TU 05:00 PM,WE 05:00 PM,TH 05:00 PM,FR 05:00 PM,SA 01:45 PM,,30.360969,-97.7157585
3813400011,USPS COLLECTION BOX - BLUE BOX,5455 CRESTVIEW DR,MEMPHIS,TN,38134,MO 01:00 PM,TU 01:00 PM,WE 01:00 PM,TH 01:00 PM,FR 01:00 PM,SA 01:00 PM,,35.170729525,-89.8815821842
9210900109,USPS COLLECTION BOX - BLUE BOX,1375 PACIFIC BEACH DR,SAN DIEGO,CA,92109,MO 10:30 AM,TU 10:30 AM,WE 10:30 AM,TH 10:30 AM,FR 10:30 AM,SA 10:30 AM,,32.79327627,-117.242996941
2160100015,USPS COLLECTION BOX - BLUE BOX,219 MARLBORO AVE,EASTON,MD,21601,MO 03:45 PM,TU 03:45 PM,WE 03:45 PM,TH 03:45 PM,FR 03:45 PM,SA 02:45 PM,,38.7819,-76.081968
7706100015,USPS COLLECTION BOX - BLUE BOX,8100 AIRPORT BLVD,HOUSTON,TX,77061,MO 03:30 PM,TU 03:30 PM,WE 03:30 PM,TH 03:30 PM,FR 03:30 PM,SA 03:30 PM,,29.657904067,-95.269524067
6344800001,USPS COLLECTION BOX - BLUE BOX,202 N MAIN ST,LA GRANGE,MO,63448,MO 02:35 PM,TU 02:35 PM,WE 02:35 PM,TH 02:35 PM,FR 02:35 PM,SA 09:00 AM,,40.0439227314,-91.4978606009
6344800004,USPS COLLECTION BOX - PO LOBBY,202 N MAIN ST,LA GRANGE,MO,63448,MO 02:35 PM,TU 02:35 PM,WE 02:35 PM,TH 02:35 PM,FR 02:35 PM,SA 09:00 AM,,40.043922731,-91.497860601
6344800006,USPS COLLECTION BOX - PO LOBBY,202 N MAIN ST,LA GRANGE,MO,63448,MO 02:35 PM,TU 02:35 PM,WE 02:35 PM,TH 02:35 PM,FR 02:35 PM,SA 09:00 AM,,40.0439227314,-91.4978606009
5472400007,USPS COLLECTION BOX - BLUE BOX,1625 WOODARD RD,BLOOMER,WI,54724,MO 12:00 PM,TU 12:00 PM,WE 12:00 PM,TH 12:00 PM,FR 12:00 PM,SA 12:00 PM,,45.100939601,-91.508627507
8409500020,USPS COLLECTION BOX - BLUE BOX,10705 S JORDAN GTWY,SOUTH JORDAN,UT,84095,MO 02:00 PM,TU 02:00 PM,WE 02:00 PM,TH 02:00 PM,FR 02:00 PM,,,40.5563993563,-111.9029366032
9566100094,USPS COLLECTION BOX - BLUE BOX,1640 EUREKA RD STE B,ROSEVILLE,CA,95661,MO 01:30 PM,TU 01:30 PM,WE 01:30 PM,TH 01:30 PM,FR 01:30 PM,SA 03:00 PM,,38.746701,-121.249314
9560200014,USPS COLLECTION BOX - BLUE BOX,10556 COMBIE RD,AUBURN,CA,95602,MO 12:00 PM,TU 12:00 PM,WE 12:00 PM,TH 12:00 PM,FR 12:00 PM,SA 12:00 PM,,39.0424598116,-121.0819269127
3499400012,USPS COLLECTION BOX - BLUE BOX,789 SW FEDERAL HWY,STUART,FL,34994,MO 01:30 PM,TU 01:30 PM,WE 01:30 PM,TH 01:30 PM,FR 01:30 PM,SA 11:00 AM,,27.1922496148,-80.2552192612
3499400009,USPS COLLECTION BOX - BLUE BOX,10 SE CENTRAL PKWY,STUART,FL,34994,MO 11:00 AM,TU 11:00 AM,WE 11:00 AM,TH 11:00 AM,FR 11:00 AM,SA 11:00 AM,,27.1787164929,-80.2519170106
3499400045,USPS COLLECTION BOX - BLUE BOX,1250 SE GLENWOOD DR,STUART,FL,34994,MO 03:00 PM,TU 03:00 PM,WE 03:00 PM,TH 03:00 PM,FR 03:00 PM,SA 03:00 PM,,27.1713240842,-80.2322384737
5032200023,USPS COLLECTION BOX - BLUE BOX,7025 HICKMAN RD,DES MOINES,IA,50322,MO 03:00 PM,TU 03:00 PM,WE 03:00 PM,TH 03:00 PM,FR 03:00 PM,,,41.615068637,-93.714877063
9372200024,USPS COLLECTION BOX - BLUE BOX,4672 W JENNIFER AVE,FRESNO,CA,93722,MO 10:30 AM,TU 10:30 AM,WE 10:30 AM,TH 10:30 AM,FR 10:30 AM,,,36.8108528823,-119.8774127942
9363700006,USPS COLLECTION BOX - BLUE BOX,516 S I ST,MADERA,CA,93637,MO 03:00 PM,TU 03:00 PM,WE 03:00 PM,TH 03:00 PM,FR 03:00 PM,,,36.9546550749,-120.0590713249
5508200035,USPS COLLECTION BOX - BLUE BOX,1801 MARKET DR,STILLWATER,MN,55082,MO 03:00 PM,TU 03:00 PM,WE 03:00 PM,TH 03:00 PM,FR 03:00 PM,SA 01:00 PM,,45.039375,-92.8385595
0606600058,USPS COLLECTION BOX - BLUE BOX,243 HARTFORD TPKE,VERNON,CT,06066,MO 11:00 AM,TU 11:00 AM,WE 11:00 AM,TH 11:00 AM,FR 11:00 AM,SA 11:00 AM,,41.825770123,-72.496046001
4760100006,USPS COLLECTION BOX - BLUE BOX,107 W LOCUST ST,BOONVILLE,IN,47601,MO 03:15 PM,TU 03:15 PM,WE 03:15 PM,TH 03:15 PM,FR 03:15 PM,SA 12:45 PM,,38.04917002,-87.274430016
2570100090,USPS COLLECTION BOX - BLUE BOX,422 10TH ST,HUNTINGTON,WV,25701,MO 01:30 PM,TU 01:30 PM,WE 01:30 PM,TH 01:30 PM,FR 01:30 PM,SA 10:00 AM,,38.420527012,-82.441987373
6611500008,USPS COLLECTION BOX - BLUE BOX,720 KINDLEBERGER RD,KANSAS CITY,KS,66115,MO 03:00 PM,TU 03:00 PM,WE 03:00 PM,TH 03:00 PM,FR 03:00 PM,SA 02:15 PM,,39.1501994833,-94.6236223025
5591200040,USPS COLLECTION BOX - BLUE BOX,1001 18TH AVE NW,AUSTIN,MN,55912,MO 01:00 PM,TU 01:00 PM,WE 01:00 PM,TH 01:00 PM,FR 01:00 PM,SA 01:00 PM,,43.684740511,-92.985861067
0192100002,USPS COLLECTION BOX - BLUE BOX,7 ELM ST,BOXFORD,MA,01921,MO 12:00 PM,TU 12:00 PM,WE 12:00 PM,TH 12:00 PM,FR 12:00 PM,SA 12:00 PM,,42.662546079,-70.997826397
3030900143,USPS COLLECTION BOX - BLUE BOX,1753 PEACHTREE ST NE,ATLANTA,GA,30309,MO 11:00 AM,TU 11:00 AM,WE 11:00 AM,TH 11:00 AM,FR 11:00 AM,SA 11:00 AM,,33.802263,-84.3922845
0861800021,USPS COLLECTION BOX - BLUE BOX,416 BELLEVUE AVE,EWING,NJ,08618,MO 11:00 AM,TU 11:00 AM,WE 11:00 AM,TH 11:00 AM,FR 11:00 AM,SA 11:00 AM,,40.229082363,-74.776415042
8910700029,USPS COLLECTION BOX - BLUE BOX,240 S DECATUR BLVD,LAS VEGAS,NV,89107,MO 02:30 PM,TU 02:30 PM,WE 02:30 PM,TH 02:30 PM,FR 02:30 PM,SA 02:30 PM,,36.1706663398,-115.2061772957
8911800012,USPS COLLECTION BOX - BLUE BOX,5190 S VALLEY VIEW BLVD,LAS VEGAS,NV,89118,MO 10:30 AM,TU 10:30 AM,WE 10:30 AM,TH 10:30 AM,FR 10:30 AM,SA 10:30 AM,,36.095814,-115.1892675
0639000006,USPS COLLECTION BOX - BLUE BOX,1 ORIENTAL AVE # 9,FISHERS ISLAND,NY,06390,MO 04:00 PM,TU 04:00 PM,WE 04:00 PM,TH 04:00 PM,FR 04:00 PM,,,41.263265813,-72.016866284
0436400013,USPS COLLECTION BOX - PO LOBBY,112 MAIN ST,WINTHROP,ME,04364,MO 04:30 PM,TU 04:30 PM,WE 04:30 PM,TH 04:30 PM,FR 04:30 PM,SA 12:00 PM,,44.3069641033,-69.972877283
0607000014,USPS COLLECTION BOX - BLUE BOX,10 STATION ST,SIMSBURY,CT,06070,MO 11:00 AM,TU 11:00 AM,WE 11:00 AM,TH 11:00 AM,FR 11:00 AM,SA 11:00 AM,,41.8750647753,-72.8015382782
2070600124,USPS COLLECTION BOX - BLUE BOX,9320 ANNAPOLIS RD,GLENARDEN,MD,20706,MO 02:30 PM,TU 02:30 PM,WE 02:30 PM,TH 02:30 PM,FR 02:30 PM,SA 12:00 PM,,38.965185,-76.848696
2070600125,USPS COLLECTION BOX - BLUE BOX,8118 GOOD LUCK RD,GLENARDEN,MD,20706,MO 12:00 PM,TU 12:00 PM,WE 12:00 PM,TH 12:00 PM,FR 12:00 PM,SA 12:00 PM,,38.982609,-76.865391
8384300018,USPS COLLECTION BOX - BLUE BOX,710 S DEAKIN ST,MOSCOW,ID,83843,MO 04:00 PM,TU 04:00 PM,WE 04:00 PM,TH 04:00 PM,FR 04:00 PM,SA 04:00 PM,,46.7282600969,-117.00684044
6017400112,USPS COLLECTION BOX - BLUE BOX,1515 W MAIN ST,ST CHARLES,IL,60174,MO 05:00 PM,TU 05:00 PM,WE 05:00 PM,TH 05:00 PM,FR 05:00 PM,SA 01:00 PM,,41.9125810066,-88.3327661508
9581400357,USPS COLLECTION BOX - BLUE BOX,118 K ST,SACRAMENTO,CA,95814,MO 03:30 PM,TU 03:30 PM,WE 03:30 PM,TH 03:30 PM,FR 03:30 PM,,,38.581974,-121.505211
9582800011,USPS COLLECTION BOX - BLUE BOX,7902 GERBER RD,SACRAMENTO,CA,95828,MO 03:30 PM,TU 03:30 PM,WE 03:30 PM,TH 03:30 PM,FR 03:30 PM,SA 10:00 AM,,38.480922,-121.410981
6047700036,USPS COLLECTION BOX - BLUE BOX,18300 W WEST CREEK DR,TINLEY PARK,IL,60477,MO 11:00 AM,TU 11:00 AM,WE 11:00 AM,TH 11:00 AM,FR 11:00 AM,SA 11:00 AM,,41.5584057043,-87.7992647957
4330200048,USPS COLLECTION BOX - BLUE BOX,1100 E CENTER ST,MARION,OH,43302,MO 10:00 AM,TU 10:00 AM,WE 10:00 AM,TH 10:00 AM,FR 10:00 AM,SA 10:00 AM,,40.5897255149,-83.1019722799
5051100011,USPS COLLECTION BOX - BLUE BOX,1904 HWY 18,ALGONA,IA,50511,MO 01:00 PM,TU 01:00 PM,WE 01:00 PM,TH 01:00 PM,FR 01:00 PM,SA 01:00 PM,,43.0827216095,-94.2141478162
6406600001,USPS COLLECTION BOX - BLUE BOX,212 MAIN ST,LEVASY,MO,64066,MO 03:00 PM,TU 03:00 PM,WE 03:00 PM,TH 03:00 PM,FR 03:00 PM,SA 03:00 PM,,39.1347898951,-94.1330153689
6406600004,USPS COLLECTION BOX - PO LOBBY,212 MAIN ST,LEVASY,MO,64066,MO 11:30 AM,TU 11:30 AM,WE 11:30 AM,TH 11:30 AM,FR 11:30 AM,SA 09:30 AM,,39.134789895,-94.133015369
6406600006,USPS COLLECTION BOX - PO LOBBY,212 MAIN ST,LEVASY,MO,64066,MO 12:00 PM,TU 12:00 PM,WE 12:00 PM,TH 12:00 PM,FR 12:00 PM,SA 10:00 AM,,39.134789895,-94.133015369
7524005901,USPS COLLECTION BOX - BLUE BOX,6300 LBJ FWY,DALLAS,TX,75240,MO 12:00 PM,TU 12:00 PM,WE 12:00 PM,TH 12:00 PM,FR 12:00 PM,SA 11:30 AM,,32.9243797411,-96.7971817411
7524306591,USPS COLLECTION BOX - BLUE BOX,11615 N CENTRAL EXPY,DALLAS,TX,75243,MO 03:00 PM,TU 03:00 PM,WE 03:00 PM,TH 03:00 PM,FR 03:00 PM,SA 11:30 AM,,32.9084028865,-96.7694176809
7524306592,USPS COLLECTION BOX - BLUE BOX,11615 N CENTRAL EXPY,DALLAS,TX,75243,MO 03:00 PM,TU 03:00 PM,WE 03:00 PM,TH 03:00 PM,FR 03:00 PM,SA 11:30 AM,,32.9084028865,-96.7694176809
7523406216,USPS COLLECTION BOX - BLUE BOX,3600 RIDGEOAK WAY,DALLAS,TX,75234,MO 03:00 PM,TU 03:00 PM,WE 03:00 PM,TH 03:00 PM,FR 03:00 PM,,,32.9193313963,-96.8575306024
7011300124,USPS COLLECTION BOX - BLUE BOX,610 S MAESTRI PL,NEW ORLEANS,LA,70113,MO 03:00 PM,TU 03:00 PM,WE 03:00 PM,TH 03:00 PM,FR 03:00 PM,SA 12:30 PM,,29.947537727,-90.069984691
9025000123,USPS COLLECTION BOX - BLUE BOX,5348 W. 135TH ST,HAWTHORNE,CA,90250,MO 01:00 PM,TU 01:00 PM,WE 01:00 PM,TH 01:00 PM,FR 01:00 PM,SA 01:00 PM,,33.90921,-118.3740975
9050400028,USPS COLLECTION BOX - PO LOBBY,18080 CRENSHAW BLVD LOBBY,TORRANCE,CA,90504,MO 05:00 PM,TU 05:00 PM,WE 05:00 PM,TH 05:00 PM,FR 05:00 PM,SA 04:00 PM,,33.866514,-118.326464532
7841100005,USPS COLLECTION BOX - BLUE BOX,4439 GOLLIHAR RD,CORPUS CHRISTI,TX,78411,MO 04:00 PM,TU 04:00 PM,WE 04:00 PM,TH 04:00 PM,FR 04:00 PM,SA 03:15 PM,,27.727147992,-97.384979016
6609000005,USPS COLLECTION BOX - BLUE BOX,209 ROSEPORT RD,WATHENA,KS,66090,MO 02:30 PM,TU 02:30 PM,WE 02:30 PM,TH 02:30 PM,FR 02:30 PM,SA 02:30 PM,,39.7509199939,-94.8711299965
7701900021,USPS COLLECTION BOX - BLUE BOX,1900 TEMPLE DR,HOUSTON,TX,77019,MO 01:00 PM,TU 01:00 PM,WE 01:00 PM,TH 01:00 PM,FR 01:00 PM,,,29.760424391,-95.385864295
7700200175,USPS COLLECTION BOX - BLUE BOX,913 PRAIRIE ST,HOUSTON,TX,77002,MO 03:00 PM,TU 03:00 PM,WE 03:00 PM,TH 03:00 PM,FR 03:00 PM,,,29.761016509,-95.36231368
0766000007,USPS COLLECTION BOX - BLUE BOX,107 CEDAR ST,RIDGEFIELD PARK,NJ,07660,MO 11:00 AM,TU 11:00 AM,WE 11:00 AM,TH 11:00 AM,FR 11:00 AM,SA 11:00 AM,,40.85453522,-74.02205987
0766000006,USPS COLLECTION BOX - BLUE BOX,67 EUCLID AVE,RIDGEFIELD PARK,NJ,07660,MO 11:00 AM,TU 11:00 AM,WE 11:00 AM,TH 11:00 AM,FR 11:00 AM,SA 11:00 AM,,40.851921316,-74.023360762
0764300009,USPS COLLECTION BOX - BLUE BOX,2 E GATE ST,LITTLE FERRY,NJ,07643,MO 09:00 AM,TU 09:00 AM,WE 09:00 AM,TH 09:00 AM,FR 09:00 AM,SA 09:00 AM,,40.856670987,-74.038082992
0765700006,USPS COLLECTION BOX - BLUE BOX,321 BROAD AVE,RIDGEFIELD,NJ,07657,MO 09:30 AM,TU 09:30 AM,WE 09:30 AM,TH 09:30 AM,FR 09:30 AM,SA 09:30 AM,,40.8250498814,-74.0092594292
0702200010,USPS COLLECTION BOX - BLUE BOX,41 FRANKLIN AVE,FAIRVIEW,NJ,07022,MO 10:30 AM,TU 10:30 AM,WE 10:30 AM,TH 10:30 AM,FR 10:30 AM,SA 02:00 PM,,40.8246001302,-74.006941029
0765700022,USPS COLLECTION BOX - BLUE BOX,607 BERGEN BLVD,RIDGEFIELD,NJ,07657,MO 09:30 AM,TU 09:30 AM,WE 09:30 AM,TH 09:30 AM,FR 09:30 AM,SA 09:30 AM,,40.828428,-73.9949445
8330100021,USPS COLLECTION BOX - BLUE BOX,220 EASTLAND DR,TWIN FALLS,ID,83301,MO 05:00 PM,TU 05:00 PM,WE 05:00 PM,TH 05:00 PM,FR 05:00 PM,SA 05:00 PM,,42.5500829162,-114.440542231
0248100244,USPS COLLECTION BOX - BLUE BOX,112 WORCESTER ST,WELLESLEY,MA,02481,MO 04:30 PM,TU 04:30 PM,WE 04:30 PM,TH 04:30 PM,FR 04:30 PM,,,42.314769,-71.237295
0246100008,USPS COLLECTION BOX - BLUE BOX,1574 CENTRE ST,NEWTON HLDS,MA,02461,MO 10:00 AM,TU 10:00 AM,WE 10:00 AM,TH 10:00 AM,FR 10:00 AM,SA 10:00 AM,,42.321808981,-71.202824986
0203200003,USPS COLLECTION BOX - BLUE BOX,98 PROVIDENCE HWY,EAST WALPOLE,MA,02032,MO 10:00 AM,TU 10:00 AM,WE 10:00 AM,TH 10:00 AM,FR 10:00 AM,SA 10:00 AM,,42.1551281172,-71.2040672422
1650500043,USPS COLLECTION BOX - BLUE BOX,902 W ERIE PLAZA DR,ERIE,PA,16505,MO 03:00 PM,TU 03:00 PM,WE 03:00 PM,TH 03:00 PM,FR 03:00 PM,SA 01:30 PM,,42.107537096,-80.134222934
0110500009,USPS COLLECTION BOX - BLUE BOX,119 ASHLEY ST,SPRINGFIELD,MA,01105,MO 10:00 AM,TU 10:00 AM,WE 10:00 AM,TH 10:00 AM,FR 10:00 AM,SA 10:00 AM,,42.100677,-72.5676795
5541400045,USPS COLLECTION BOX - BLUE BOX,1500 COMO AVE SE,MINNEAPOLIS,MN,55414,MO 01:00 PM,TU 01:00 PM,WE 01:00 PM,TH 01:00 PM,FR 01:00 PM,SA 01:00 PM,,44.9877961579,-93.2300899942
5545500044,USPS COLLECTION BOX - BLUE BOX,500 HARVARD ST SE,MINNEAPOLIS,MN,55455,MO 05:00 PM,TU 05:00 PM,WE 05:00 PM,TH 05:00 PM,FR 05:00 PM,SA 01:00 PM,,44.971056,-93.23136
9612800000,USPS COLLECTION BOX - PO LOBBY,718-650 US HIGHWAY 395 E,STANDISH,CA,96128,MO 04:15 PM,TU 04:15 PM,WE 04:15 PM,TH 04:15 PM,FR 04:15 PM,SA 09:15 AM,,40.3651185212,-120.4249901647
4472000111,USPS COLLECTION BOX - BLUE BOX,7555 FREEDOM AVE NW,"","",44720,MO 10:00 AM,TU 10:00 AM,WE 10:00 AM,TH 10:00 AM,FR 10:00 AM,SA 10:00 AM,,40.890501954,-81.42985349
4904800002,USPS COLLECTION BOX - BLUE BOX,5073 GULL RD,KALAMAZOO,MI,49048,MO 04:15 PM,TU 04:15 PM,WE 04:15 PM,TH 04:15 PM,FR 04:15 PM,SA 09:30 AM,,42.320399876,-85.528307362
4904800003,USPS COLLECTION BOX - PO LOBBY,5073 GULL RD,KALAMAZOO,MI,49048,MO 04:15 PM,TU 04:15 PM,WE 04:15 PM,TH 04:15 PM,FR 04:15 PM,SA 09:30 AM,,42.320399876,-85.528307362
4904800004,USPS COLLECTION BOX - PO LOBBY,5073 GULL RD,KALAMAZOO,MI,49048,MO 04:00 PM,TU 04:00 PM,WE 04:00 PM,TH 04:00 PM,FR 04:00 PM,SA 09:00 AM,,42.320399876,-85.5283073618
4900100035,USPS COLLECTION BOX - BLUE BOX,420 E ALCOTT ST,KALAMAZOO,MI,49001,MO 01:00 PM,TU 01:00 PM,WE 01:00 PM,TH 01:00 PM,FR 01:00 PM,SA 01:00 PM,,42.27038966,-85.575838988
6270400014,USPS COLLECTION BOX - BLUE BOX,2 DRAWBRIDGE RD,SPRINGFIELD,IL,62704,MO 03:00 PM,TU 03:00 PM,WE 03:00 PM,TH 03:00 PM,FR 03:00 PM,SA 04:00 PM,,39.763692,-89.7005205
5510500024,USPS COLLECTION BOX - BLUE BOX,867 GRAND AVE,SAINT PAUL,MN,55105,MO 01:00 PM,TU 01:00 PM,WE 01:00 PM,TH 01:00 PM,FR 01:00 PM,SA 11:00 AM,,44.94007,-93.1367600025
2654400004,USPS COLLECTION BOX - BLUE BOX,55 PENTRESS RD,PENTRESS,WV,26544,MO 11:45 AM,TU 11:45 AM,WE 11:45 AM,TH 11:45 AM,FR 11:45 AM,SA 12:30 PM,,39.7090831381,-80.1619034968
2654400005,USPS COLLECTION BOX - PO LOBBY,55 PENTRESS RD,PENTRESS,WV,26544,MO 12:00 PM,TU 12:00 PM,WE 12:00 PM,TH 12:00 PM,FR 12:00 PM,SA 12:30 PM,,39.7090831381,-80.1619034968
2654400006,USPS COLLECTION BOX - PO LOBBY,55 PENTRESS RD,PENTRESS,WV,26544,MO 12:00 PM,TU 12:00 PM,WE 12:00 PM,TH 12:00 PM,FR 12:00 PM,SA 12:30 PM,,39.7090831381,-80.1619034968
1881300005,USPS COLLECTION BOX - BLUE BOX,6994 MAPLE ST,BROOKLYN,PA,18813,MO 12:00 PM,TU 12:00 PM,WE 12:00 PM,TH 12:00 PM,FR 12:00 PM,SA 01:00 PM,,41.752828964,-75.807083154
1881300006,USPS COLLECTION BOX - PO LOBBY,6994 MAPLE ST,BROOKLYN,PA,18813,MO 12:00 PM,TU 12:00 PM,WE 12:00 PM,TH 12:00 PM,FR 12:00 PM,SA 01:00 PM,,41.752828964,-75.807083154
7824000015,USPS COLLECTION BOX - BLUE BOX,9119 CINNAMON HL,SAN ANTONIO,TX,78240,MO 03:15 PM,TU 03:15 PM,WE 03:15 PM,TH 03:15 PM,FR 03:15 PM,,,29.5266010189,-98.5836123345
7820900169,USPS COLLECTION BOX - PO LOBBY,1107 AUSTIN HWY,SAN ANTONIO,TX,78209,MO 05:15 PM,TU 05:15 PM,WE 05:15 PM,TH 05:15 PM,FR 05:15 PM,SA 12:45 PM,,29.4865090072,-98.4503919997
7820900170,USPS COLLECTION BOX - PO LOBBY,1107 AUSTIN HWY,SAN ANTONIO,TX,78209,MO 05:30 PM,TU 05:30 PM,WE 05:30 PM,TH 05:30 PM,FR 05:30 PM,SA 01:00 PM,,29.4865090072,-98.4503919997
7820900171,USPS COLLECTION BOX - BLUE BOX,1107 AUSTIN HWY,SAN ANTONIO,TX,78209,MO 05:15 PM,TU 05:15 PM,WE 05:15 PM,TH 05:15 PM,FR 05:15 PM,SA 12:45 PM,,29.4865090072,-98.4503919997
5580200020,USPS COLLECTION BOX - BLUE BOX,127 E SUPERIOR ST,DULUTH,MN,55802,MO 12:15 PM,TU 12:15 PM,WE 12:15 PM,TH 12:15 PM,FR 12:15 PM,SA 12:15 PM,,46.7882201387,-92.0966197869
2090200174,USPS COLLECTION BOX - BLUE BOX,2627 NEWTON ST,SILVER SPRING,MD,20902,MO 03:00 PM,TU 03:00 PM,WE 03:00 PM,TH 03:00 PM,FR 03:00 PM,,,39.057642,-77.055714
2298000020,USPS COLLECTION BOX - BLUE BOX,2200 W MAIN ST,WAYNESBORO,VA,22980,MO 05:00 PM,TU 05:00 PM,WE 05:00 PM,TH 05:00 PM,FR 05:00 PM,SA 04:00 PM,,38.077439828,-78.91682447
7705500014,USPS COLLECTION BOX - BLUE BOX,7800 LONG POINT RD,HOUSTON,TX,77055,MO 03:30 PM,TU 03:30 PM,WE 03:30 PM,TH 03:30 PM,FR 03:30 PM,,,29.8031100024,-95.48318696
9583300094,USPS COLLECTION BOX - BLUE BOX,2820 EL CENTRO RD,SACRAMENTO,CA,95833,MO 09:30 AM,TU 09:30 AM,WE 09:30 AM,TH 09:30 AM,FR 09:30 AM,SA 09:30 AM,,38.6173217851,-121.5394429063
9582500035,USPS COLLECTION BOX - BLUE BOX,2701 COTTAGE WAY,SACRAMENTO,CA,95825,MO 10:00 AM,TU 10:00 AM,WE 10:00 AM,TH 10:00 AM,FR 10:00 AM,SA 10:00 AM,,38.604078,-121.399578
4361000032,USPS COLLECTION BOX - PO LOBBY,2280 ASHLAND AVE,TOLEDO,OH,43610,MO 05:00 PM,TU 05:00 PM,WE 05:00 PM,TH 05:00 PM,FR 05:00 PM,SA 02:00 PM,,41.665919008,-83.553259988
4632300042,USPS COLLECTION BOX - BLUE BOX,2200 173RD ST,HAMMOND,IN,46323,MO 09:00 AM,TU 09:00 AM,WE 09:00 AM,TH 09:00 AM,FR 09:00 AM,SA 09:00 AM,,41.5810473077,-87.4760545275
0102000001,USPS COLLECTION BOX - BLUE BOX,400 BRITTON ST,CHICOPEE,MA,01020,MO 09:00 AM,TU 09:00 AM,WE 09:00 AM,TH 09:00 AM,FR 09:00 AM,SA 09:00 AM,,42.20858421,-72.574023427
0104000104,USPS COLLECTION BOX - BLUE BOX,225 HIGH ST,HOLYOKE,MA,01040,MO 10:00 AM,TU 10:00 AM,WE 10:00 AM,TH 10:00 AM,FR 10:00 AM,SA 09:00 AM,,42.207345,-72.607716
0115100001,USPS COLLECTION BOX - BLUE BOX,501 OAK ST,SPRINGFIELD,MA,01151,MO 10:00 AM,TU 10:00 AM,WE 10:00 AM,TH 10:00 AM,FR 10:00 AM,SA 10:00 AM,,42.1471783322,-72.4956221051
3301200086,USPS COLLECTION BOX - BLUE BOX,449 W 49TH ST,HIALEAH,FL,33012,MO 01:00 PM,TU 01:00 PM,WE 01:00 PM,TH 01:00 PM,FR 01:00 PM,SA 01:00 PM,,25.86834,-80.291988
2350500065,USPS COLLECTION BOX - BLUE BOX,1355 INTERNATIONAL TERMINAL BLVD,NORFOLK,VA,23505,MO 05:00 PM,TU 05:00 PM,WE 05:00 PM,TH 05:00 PM,FR 05:00 PM,SA 01:00 PM,,36.9189735294,-76.2978604915
6405500015,USPS COLLECTION BOX - BLUE BOX,4201 S NOLAND RD,INDEPENDENCE,MO,64055,MO 03:00 PM,TU 03:00 PM,WE 03:00 PM,TH 03:00 PM,FR 03:00 PM,SA 03:00 PM,,39.0439115677,-94.4151783901
0560200051,USPS COLLECTION BOX - BLUE BOX,1 FRANKLIN ST,MONTPELIER,VT,05602,MO 10:00 AM,TU 10:00 AM,WE 10:00 AM,TH 10:00 AM,FR 10:00 AM,SA 10:00 AM,,44.264476113,-72.568594008
9232500012,USPS COLLECTION BOX - BLUE BOX,23026 WATERS DR,CRESTLINE,CA,92325,MO 01:00 PM,TU 01:00 PM,WE 01:00 PM,TH 01:00 PM,FR 01:00 PM,SA 12:00 PM,,34.246958153,-117.3015035518
9859700000,USPS COLLECTION BOX - BLUE BOX,21600 N CLEAR LAKE BLVD SE,YELM,WA,98597,MO 11:30 AM,TU 11:30 AM,WE 11:30 AM,TH 11:30 AM,FR 11:30 AM,SA 11:30 AM,,46.8337652312,-122.4850256024
9000100030,USPS COLLECTION BOX - APC,7101 S CENTRAL AVE LOBBY,LOS ANGELES,CA,90001,MO 05:00 PM,TU 05:00 PM,WE 05:00 PM,TH 05:00 PM,FR 05:00 PM,SA 03:00 PM,,33.9752600174,-118.2567019659
9002100063,USPS COLLECTION BOX - PO LOBBY,1122 E 7TH ST LOBBY,LOS ANGELES,CA,90021,MO 02:00 PM,TU 02:00 PM,WE 02:00 PM,TH 02:00 PM,FR 02:00 PM,,,34.037783561,-118.24267358
7520905445,USPS COLLECTION BOX - BLUE BOX,5150 LEMMON AVE STE 104,DALLAS,TX,75209,MO 01:00 PM,TU 01:00 PM,WE 01:00 PM,TH 01:00 PM,FR 01:00 PM,,,32.825044517,-96.820686733
5810300061,USPS COLLECTION BOX - BLUE BOX,520 MAIN AVE,FARGO,ND,58103,MO 09:00 AM,TU 09:00 AM,WE 09:00 AM,TH 09:00 AM,FR 09:00 AM,,,46.874016,-96.7874715
9210200048,USPS COLLECTION BOX - BLUE BOX,2121 IMPERIAL AVE,SAN DIEGO,CA,92102,MO 10:30 AM,TU 10:30 AM,WE 10:30 AM,TH 10:30 AM,FR 10:30 AM,,,32.705721,-117.1444275
7240500001,USPS COLLECTION BOX - BLUE BOX,4800 E JOHNSON AVE,JONESBORO,AR,72405,MO 10:00 AM,TU 10:00 AM,WE 10:00 AM,TH 10:00 AM,FR 10:00 AM,SA 10:00 AM,,35.866395,-90.6363135
7276400003,USPS COLLECTION BOX - BLUE BOX,2600 S OLD MISSOURI RD,SPRINGDALE,AR,72764,MO 02:00 PM,TU 02:00 PM,WE 02:00 PM,TH 02:00 PM,FR 02:00 PM,SA 02:00 PM,,36.16104511,-94.119273772
0191300033,USPS COLLECTION BOX - BLUE BOX,5 MARKET SQ,AMESBURY,MA,01913,MO 04:30 PM,TU 04:30 PM,WE 04:30 PM,TH 04:30 PM,FR 04:30 PM,,,42.858081,-70.930575
5496000000,USPS COLLECTION BOX - BLUE BOX,317 S MAIN ST,NESHKORO,WI,54960,MO 04:00 PM,TU 04:00 PM,WE 04:00 PM,TH 04:00 PM,FR 04:00 PM,SA 12:15 PM,,43.961034915,-89.218673962
3348400083,USPS COLLECTION BOX - BLUE BOX,6561 FLANDERS WAY,DELRAY BEACH,FL,33484,MO 03:00 PM,TU 03:00 PM,WE 03:00 PM,TH 03:00 PM,FR 03:00 PM,,,26.4431611179,-80.1392542582
3344100019,USPS COLLECTION BOX - BLUE BOX,212 E HILLSBORO,DEERFIELD BEACH,FL,33441,MO 05:15 PM,TU 05:15 PM,WE 05:15 PM,TH 05:15 PM,FR 05:15 PM,SA 04:00 PM,,26.3178409852,-80.0993260183
0641000035,USPS COLLECTION BOX - BLUE BOX,290 HIGHLAND AVE,CHESHIRE,CT,06410,MO 10:00 AM,TU 10:00 AM,WE 10:00 AM,TH 10:00 AM,FR 10:00 AM,SA 10:00 AM,,41.5066707167,-72.9001363056
0647900015,USPS COLLECTION BOX - BLUE BOX,887 MERIDEN WATERBURY TPKE,PLANTSVILLE,CT,06479,MO 12:00 PM,TU 12:00 PM,WE 12:00 PM,TH 12:00 PM,FR 12:00 PM,SA 11:00 AM,,41.5631951435,-72.8744355046
2079000012,USPS COLLECTION BOX - BLUE BOX,"9201 EDGEWORTH DR. CAPITAL HEIGHTS, MD",CAPITOL HEIGHTS,MD,20790,MO 06:30 PM,TU 06:30 PM,WE 06:30 PM,TH 06:30 PM,FR 06:30 PM,SA 04:45 PM,,38.880522,-76.8461085
4409500038,USPS COLLECTION BOX - BLUE BOX,34854 LAKE SHORE BLVD APT J,WILLOWICK,OH,44095,MO 10:00 AM,TU 10:00 AM,WE 10:00 AM,TH 10:00 AM,FR 10:00 AM,SA 11:00 AM,,41.662404,-81.4429755
3317800000,USPS COLLECTION BOX - BLUE BOX,10598 NW SOUTH RIVER DR,MIAMI,FL,33178,MO 01:45 PM,TU 01:45 PM,WE 01:45 PM,TH 01:45 PM,FR 01:45 PM,SA 03:00 PM,,25.869339,-80.344647
1375400009,USPS COLLECTION BOX - BLUE BOX,146 FRONT ST,DEPOSIT,NY,13754,MO 01:15 PM,TU 01:15 PM,WE 01:15 PM,TH 01:15 PM,FR 01:15 PM,SA 01:15 PM,,42.0607169076,-75.4257826841
2740600025,USPS COLLECTION BOX - BLUE BOX,2005 S ELM EUGENE ST,GREENSBORO,NC,27406,MO 11:30 AM,TU 11:30 AM,WE 11:30 AM,TH 11:30 AM,FR 11:30 AM,SA 11:00 AM,,36.0474989964,-79.7908989712
2740700062,USPS COLLECTION BOX - BLUE BOX,2001 BOULEVARD A,GREENSBORO,NC,27407,MO 09:00 AM,TU 09:00 AM,WE 09:00 AM,TH 09:00 AM,FR 09:00 AM,SA 09:00 AM,,36.0414434599,-79.8517441071
6862100000,USPS COLLECTION BOX - BLUE BOX,210 N MAIN ST,AMES,NE,68621,MO 12:15 PM,TU 12:15 PM,WE 12:15 PM,TH 12:15 PM,FR 12:15 PM,SA 10:45 AM,,41.4525787019,-96.6262561223
6862100001,USPS COLLECTION BOX - PO LOBBY,210 N MAIN ST,AMES,NE,68621,MO 12:15 PM,TU 12:15 PM,WE 12:15 PM,TH 12:15 PM,FR 12:15 PM,SA 10:45 AM,,41.4525787019,-96.6262561223
5737400002,USPS COLLECTION BOX - BLUE BOX,25678 431ST AVE,SPENCER,SD,57374,MO 12:00 PM,TU 12:00 PM,WE 12:00 PM,TH 12:00 PM,FR 12:00 PM,SA 12:00 PM,,43.660602377,-97.588171674
2852000001,USPS COLLECTION BOX - BLUE BOX,3553 CEDAR ISLAND RD,CEDAR ISLAND,NC,28520,MO 02:15 PM,TU 02:15 PM,WE 02:15 PM,TH 02:15 PM,FR 02:15 PM,SA 11:30 AM,,35.0175392825,-76.3156434516
2852000002,USPS COLLECTION BOX - PO LOBBY,3553 CEDAR ISLAND RD,CEDAR ISLAND,NC,28520,MO 02:15 PM,TU 02:15 PM,WE 02:15 PM,TH 02:15 PM,FR 02:15 PM,SA 11:30 AM,,35.0175392825,-76.3156434516
2852000004,USPS COLLECTION BOX - PO LOBBY,3553 CEDAR ISLAND RD,CEDAR ISLAND,NC,28520,MO 02:15 PM,TU 02:15 PM,WE 02:15 PM,TH 02:15 PM,FR 02:15 PM,SA 11:00 AM,,35.0175392825,-76.3156434516
5542800019,USPS COLLECTION BOX - BLUE BOX,6278 BOONE AVE N,MINNEAPOLIS,MN,55428,MO 03:00 PM,TU 03:00 PM,WE 03:00 PM,TH 03:00 PM,FR 03:00 PM,SA 10:00 AM,,45.0685854105,-93.3907014114
4406200007,USPS COLLECTION BOX - BLUE BOX,15400 W HIGH ST,MIDDLEFIELD,OH,44062,MO 12:00 PM,TU 12:00 PM,WE 12:00 PM,TH 12:00 PM,FR 12:00 PM,SA 12:00 PM,,41.464593,-81.091854
7503200008,USPS COLLECTION BOX - BLUE BOX,120 N HIGHWAY 205,ROCKWALL,TX,75032,MO 11:00 AM,TU 11:00 AM,WE 11:00 AM,TH 11:00 AM,FR 11:00 AM,SA 11:00 AM,,32.849046,-96.387579
6312700021,USPS COLLECTION BOX - BLUE BOX,10733 SUNSET OFFICE DR,SAINT LOUIS,MO,63127,MO 03:30 PM,TU 03:30 PM,WE 03:30 PM,TH 03:30 PM,FR 03:30 PM,SA 01:15 PM,,38.558097,-90.40833
1320500020,USPS COLLECTION BOX - BLUE BOX,417 CHURCHILL AVE,SYRACUSE,NY,13205,MO 10:00 AM,TU 10:00 AM,WE 10:00 AM,TH 10:00 AM,FR 10:00 AM,SA 10:00 AM,,43.0088457624,-76.1395214302
9258500000,USPS COLLECTION BOX - BLUE BOX,28480 US HIGHWAY 74,SUN CITY,CA,92585,MO 04:45 PM,TU 04:45 PM,WE 04:45 PM,TH 04:45 PM,FR 04:45 PM,SA 12:00 PM,,33.7430075304,-117.1640690255
4390700012,USPS COLLECTION BOX - BLUE BOX,82422 CADIZ JEWETT RD,CADIZ,OH,43907,MO 05:00 PM,TU 05:00 PM,WE 05:00 PM,TH 05:00 PM,FR 05:00 PM,SA 03:45 PM,,40.2884554257,-80.9996453485
4390700013,USPS COLLECTION BOX - PO LOBBY,82422 CADIZ JEWETT RD,CADIZ,OH,43907,MO 05:00 PM,TU 05:00 PM,WE 05:00 PM,TH 05:00 PM,FR 05:00 PM,SA 03:45 PM,,40.2884554257,-80.9996453485
4985500016,USPS COLLECTION BOX - BLUE BOX,850 W BARAGA ST,MARQUETTE,MI,49855,MO 02:00 PM,TU 02:00 PM,WE 02:00 PM,TH 02:00 PM,FR 02:00 PM,SA 12:00 PM,,46.5431083417,-87.4110774833
4036100022,USPS COLLECTION BOX - BLUE BOX,205 LETTON DR,PARIS,KY,40361,MO 09:30 AM,TU 09:30 AM,WE 09:30 AM,TH 09:30 AM,FR 09:30 AM,SA 09:30 AM,,38.195593871,-84.275495306
9564000001,USPS COLLECTION BOX - BLUE BOX,22 MAIN ST,IONE,CA,95640,MO 04:30 PM,TU 04:30 PM,WE 04:30 PM,TH 04:30 PM,FR 04:30 PM,SA 12:00 PM,,38.3527504649,-120.9336040219
9564000002,USPS COLLECTION BOX - PO LOBBY,22 MAIN ST,IONE,CA,95640,MO 04:30 PM,TU 04:30 PM,WE 04:30 PM,TH 04:30 PM,FR 04:30 PM,SA 12:00 PM,,38.3527504649,-120.9336040219
9564000003,USPS COLLECTION BOX - PO LOBBY,22 MAIN ST,IONE,CA,95640,MO 04:30 PM,TU 04:30 PM,WE 04:30 PM,TH 04:30 PM,FR 04:30 PM,SA 12:00 PM,,38.3527504649,-120.9336040219
2401500038,USPS COLLECTION BOX - BLUE BOX,2036 COLONIAL AVE SW,ROANOKE,VA,24015,MO 10:45 AM,TU 10:45 AM,WE 10:45 AM,TH 10:45 AM,FR 10:45 AM,SA 09:00 AM,,37.255059,-79.954731
2415100003,USPS COLLECTION BOX - BLUE BOX,275 FRANKLIN ST,ROCKY MOUNT,VA,24151,MO 09:00 AM,TU 09:00 AM,WE 09:00 AM,TH 09:00 AM,FR 09:00 AM,SA 09:00 AM,,36.9988153683,-79.8927541039
2121700102,USPS COLLECTION BOX - BLUE BOX,1600 W MOUNT ROYAL AVE,BALTIMORE,MD,21217,MO 04:00 PM,TU 04:00 PM,WE 04:00 PM,TH 04:00 PM,FR 04:00 PM,SA 01:45 PM,,39.3102343469,-76.624291851
6711400002,USPS COLLECTION BOX - BLUE BOX,1021 WASHINGTON RD,NEWTON,KS,67114,MO 02:00 PM,TU 02:00 PM,WE 02:00 PM,TH 02:00 PM,FR 02:00 PM,SA 02:00 PM,,38.032488693,-97.338902618
3448100007,USPS COLLECTION BOX - BLUE BOX,8441 STATE ROAD 200,OCALA,FL,34481,MO 03:00 PM,TU 03:00 PM,WE 03:00 PM,TH 03:00 PM,FR 03:00 PM,SA 12:00 PM,,29.0772456476,-82.259451161
3448100001,USPS COLLECTION BOX - BLUE BOX,8075 SW HIGHWAY 200,OCALA,FL,34481,MO 11:00 AM,TU 11:00 AM,WE 11:00 AM,TH 11:00 AM,FR 11:00 AM,SA 10:00 AM,,29.083303461,-82.253217462
0292000046,USPS COLLECTION BOX - BLUE BOX,670 NEW LONDON AVE,CRANSTON,RI,02920,MO 12:00 PM,TU 12:00 PM,WE 12:00 PM,TH 12:00 PM,FR 12:00 PM,SA 12:00 PM,,41.748400932,-71.467997877
0291000016,USPS COLLECTION BOX - BLUE BOX,105 ROLFE SQ,CRANSTON,RI,02910,MO 11:00 AM,TU 11:00 AM,WE 11:00 AM,TH 11:00 AM,FR 11:00 AM,SA 11:00 AM,,41.7757089761,-71.4369162972
0292000049,USPS COLLECTION BOX - BLUE BOX,538 LAUREL HILL AVE,CRANSTON,RI,02920,MO 12:00 PM,TU 12:00 PM,WE 12:00 PM,TH 12:00 PM,FR 12:00 PM,SA 12:00 PM,,41.799402639,-71.452192003
1770100032,USPS COLLECTION BOX - BLUE BOX,777 RURAL AVE,WILLIAMSPORT,PA,17701,MO 04:00 PM,TU 04:00 PM,WE 04:00 PM,TH 04:00 PM,FR 04:00 PM,SA 02:00 PM,,41.2478045323,-77.016438524
2109300167,USPS COLLECTION BOX - BLUE BOX,1447 YORK RD,TIMONIUM,MD,21093,MO 05:00 PM,TU 05:00 PM,WE 05:00 PM,TH 05:00 PM,FR 05:00 PM,SA 12:45 PM,,39.420171,-76.614345
2120400114,USPS COLLECTION BOX - BLUE BOX,29 W SUSQUEHANNA AVE,BALTIMORE,MD,21204,MO 03:15 PM,TU 03:15 PM,WE 03:15 PM,TH 03:15 PM,FR 03:15 PM,SA 01:00 PM,,39.3985335978,-76.6052627005
1903300052,USPS COLLECTION BOX - BLUE BOX,100 MACDADE BLVD,FOLSOM,PA,19033,MO 09:00 AM,TU 09:00 AM,WE 09:00 AM,TH 09:00 AM,FR 09:00 AM,SA 09:00 AM,,39.8867814104,-75.3303753906
3540600016,USPS COLLECTION BOX - BLUE BOX,1300 MCFARLAND BLVD NE,TUSCALOOSA,AL,35406,MO 04:00 PM,TU 04:00 PM,WE 04:00 PM,TH 04:00 PM,FR 04:00 PM,,,33.230064461,-87.534804443
2771300011,USPS COLLECTION BOX - BLUE BOX,2525 MERIDIAN PKWY,DURHAM,NC,27713,MO 10:00 AM,TU 10:00 AM,WE 10:00 AM,TH 10:00 AM,FR 10:00 AM,SA 10:00 AM,,35.9107584876,-78.8996119305
2771300006,USPS COLLECTION BOX - BLUE BOX,4621 NC HIGHWAY 55,DURHAM,NC,27713,MO 03:00 PM,TU 03:00 PM,WE 03:00 PM,TH 03:00 PM,FR 03:00 PM,SA 10:00 AM,,35.9032138401,-78.8952545754
2770300038,USPS COLLECTION BOX - BLUE BOX,1005 SLATER RD,DURHAM,NC,27703,MO 04:30 PM,TU 04:30 PM,WE 04:30 PM,TH 04:30 PM,FR 04:30 PM,SA 10:00 AM,,35.8780753269,-78.8416144947
2294200009,USPS COLLECTION BOX - PO LOBBY,205 S MAIN ST,ZION CROSSROADS,VA,22942,MO 04:30 PM,TU 04:30 PM,WE 04:30 PM,TH 04:30 PM,FR 04:30 PM,SA 10:00 AM,,38.134305011,-78.186573031
2830300049,USPS COLLECTION BOX - BLUE BOX,804 CEDAR CREEK RD,FAYETTEVILLE,NC,28303,MO 03:30 PM,TU 03:30 PM,WE 03:30 PM,TH 03:30 PM,FR 03:30 PM,SA 11:00 AM,,35.032425874,-78.844989466
2830300055,USPS COLLECTION BOX - BLUE BOX,3616 RAMSEY ST,FAYETTEVILLE,NC,28303,MO 11:00 AM,TU 11:00 AM,WE 11:00 AM,TH 11:00 AM,FR 11:00 AM,SA 11:00 AM,,35.108757,-78.877242
2830300106,USPS COLLECTION BOX - BLUE BOX,157 TREETOP DR,FAYETTEVILLE,NC,28303,MO 11:30 AM,TU 11:30 AM,WE 11:30 AM,TH 11:30 AM,FR 11:30 AM,SA 11:30 AM,,35.127948714,-78.874291577
2830300107,USPS COLLECTION BOX - BLUE BOX,@ BUBBLE CREEK CT,FAYETTEVILLE,NC,28303,MO 12:00 PM,TU 12:00 PM,WE 12:00 PM,TH 12:00 PM,FR 12:00 PM,SA 12:00 PM,,35.139272657,-78.88296769
2830300058,USPS COLLECTION BOX - BLUE BOX,@ ANDREWS RD,FAYETTEVILLE,NC,28303,MO 11:30 AM,TU 11:30 AM,WE 11:30 AM,TH 11:30 AM,FR 11:30 AM,SA 11:30 AM,,35.155333245,-78.890877135
0102700015,USPS COLLECTION BOX - BLUE BOX,71 CLARK ST,EASTHAMPTON,MA,01027,MO 10:00 AM,TU 10:00 AM,WE 10:00 AM,TH 10:00 AM,FR 10:00 AM,SA 10:00 AM,,42.264927,-72.655164
5724600001,USPS COLLECTION BOX - BLUE BOX,109 MAIN ST,LABOLT,SD,57246,MO 12:30 PM,TU 12:30 PM,WE 12:30 PM,TH 12:30 PM,FR 12:30 PM,SA 12:30 PM,,45.0493488745,-96.6752271483
9596900009,USPS COLLECTION BOX - BLUE BOX,5555 SKYWAY,PARADISE,CA,95969,MO 10:30 AM,TU 10:30 AM,WE 10:30 AM,TH 10:30 AM,FR 10:30 AM,SA 10:30 AM,,39.7490585099,-121.633512696
9596900011,USPS COLLECTION BOX - BLUE BOX,6830 SKYWAY,PARADISE,CA,95969,MO 01:00 PM,TU 01:00 PM,WE 01:00 PM,TH 01:00 PM,FR 01:00 PM,SA 01:00 PM,,39.7638888812,-121.6198211607
9596900007,USPS COLLECTION BOX - BLUE BOX,480 PEARSON RD,PARADISE,CA,95969,MO 01:00 PM,TU 01:00 PM,WE 01:00 PM,TH 01:00 PM,FR 01:00 PM,SA 01:00 PM,,39.751875,-121.615614
9920500041,USPS COLLECTION BOX - BLUE BOX,4601 N MONROE ST,SPOKANE,WA,99205,MO 03:00 PM,TU 03:00 PM,WE 03:00 PM,TH 03:00 PM,FR 03:00 PM,,,47.7000863644,-117.425915662
9920100199,USPS COLLECTION BOX - BLUE BOX,1500 W 4TH AVE,SPOKANE,WA,99201,MO 05:00 PM,TU 05:00 PM,WE 05:00 PM,TH 05:00 PM,FR 05:00 PM,SA 01:00 PM,,47.652846015,-117.434456962
9920200071,USPS COLLECTION BOX - BLUE BOX,140 S ARTHUR,SPOKANE,WA,99202,MO 05:00 PM,TU 05:00 PM,WE 05:00 PM,TH 05:00 PM,FR 05:00 PM,SA 01:00 PM,,47.654973,-117.3957705
9140100080,USPS COLLECTION BOX - BLUE BOX,6500 VESPER AVE,VAN NUYS,CA,91401,MO 10:00 AM,TU 10:00 AM,WE 10:00 AM,TH 10:00 AM,FR 10:00 AM,SA 10:00 AM,,34.1887538057,-118.4508647174
9160600029,USPS COLLECTION BOX - BLUE BOX,13031 VICTORY BLVD,NORTH HOLLYWOOD,CA,91606,MO 10:00 AM,TU 10:00 AM,WE 10:00 AM,TH 10:00 AM,FR 10:00 AM,SA 10:00 AM,,34.186749264,-118.416502903
9140500017,USPS COLLECTION BOX - BLUE BOX,13600 SHERMAN WAY,VAN NUYS,CA,91405,MO 10:00 AM,TU 10:00 AM,WE 10:00 AM,TH 10:00 AM,FR 10:00 AM,SA 10:00 AM,,34.201161483,-118.428984
9140600067,USPS COLLECTION BOX - BLUE BOX,17200 STAGG ST,VAN NUYS,CA,91406,MO 10:00 AM,TU 10:00 AM,WE 10:00 AM,TH 10:00 AM,FR 10:00 AM,SA 10:00 AM,,34.211983264,-118.508575627
9822600016,USPS COLLECTION BOX - BLUE BOX,3930 MERIDIAN ST,BELLINGHAM,WA,98226,MO 10:30 AM,TU 10:30 AM,WE 10:30 AM,TH 10:30 AM,FR 10:30 AM,SA 10:30 AM,,48.785562,-122.483637
9822500011,USPS COLLECTION BOX - BLUE BOX,1155 N STATE ST,BELLINGHAM,WA,98225,MO 02:00 PM,TU 02:00 PM,WE 02:00 PM,TH 02:00 PM,FR 02:00 PM,SA 01:25 PM,,48.747411,-122.478921
9862600020,USPS COLLECTION BOX - BLUE BOX,207 N 4TH AVE,KELSO,WA,98626,MO 04:00 PM,TU 04:00 PM,WE 04:00 PM,TH 04:00 PM,FR 04:00 PM,,,46.1456951379,-122.9089548371
1914400118,USPS COLLECTION BOX - BLUE BOX,6354 GERMANTOWN AVE,PHILA,PA,19144,MO 09:00 AM,TU 09:00 AM,WE 09:00 AM,TH 09:00 AM,FR 09:00 AM,SA 09:00 AM,,40.0449066192,-75.1817685729
9862300004,USPS COLLECTION BOX - PO LOBBY,204 MAIN ST,HUSUM,WA,98623,MO 12:00 PM,TU 12:00 PM,WE 12:00 PM,TH 12:00 PM,FR 12:00 PM,,,45.798107564,-121.4868457
2115700024,USPS COLLECTION BOX - BLUE BOX,2 N COURT ST,WESTMINSTER,MD,21157,MO 04:30 PM,TU 04:30 PM,WE 04:30 PM,TH 04:30 PM,FR 04:30 PM,SA 01:30 PM,,39.570093869,-76.9903654659
2115700025,USPS COLLECTION BOX - BLUE BOX,2 N COURT ST,WESTMINSTER,MD,21157,MO 04:30 PM,TU 04:30 PM,WE 04:30 PM,TH 04:30 PM,FR 04:30 PM,SA 01:30 PM,,39.570093869,-76.9903654659
9561000012,USPS COLLECTION BOX - BLUE BOX,7777 GREENBACK LN,CITRUS HEIGHTS,CA,95610,MO 12:20 PM,TU 12:20 PM,WE 12:20 PM,TH 12:20 PM,FR 12:20 PM,SA 12:20 PM,,38.678868,-121.2777135
3033600028,USPS COLLECTION BOX - BLUE BOX,101 GREAT SOUTHWEST PKWY SW,ATLANTA,GA,30336,MO 09:00 AM,TU 09:00 AM,WE 09:00 AM,TH 09:00 AM,FR 09:00 AM,SA 09:00 AM,,33.7465279392,-84.5607767154
3033600033,USPS COLLECTION BOX - BLUE BOX,4375 COMMERCE DR,ATLANTA,GA,30336,MO 09:00 AM,TU 09:00 AM,WE 09:00 AM,TH 09:00 AM,FR 09:00 AM,SA 09:00 AM,,33.763451794,-84.531635875
5637800014,USPS COLLECTION BOX - BLUE BOX,121 W 1ST AVE,SAUK CENTRE,MN,56378,MO 03:30 PM,TU 03:30 PM,WE 03:30 PM,TH 03:30 PM,FR 03:30 PM,SA 11:30 AM,,45.800280439,-95.084033505
0610600026,USPS COLLECTION BOX - BLUE BOX,55 ELM ST,HARTFORD,CT,06106,MO 12:00 PM,TU 12:00 PM,WE 12:00 PM,TH 12:00 PM,FR 12:00 PM,SA 12:00 PM,,41.762556,-72.676755
9455800130,USPS COLLECTION BOX - BLUE BOX,1310 2ND ST,NAPA,CA,94558,MO 05:00 PM,TU 05:00 PM,WE 05:00 PM,TH 05:00 PM,FR 05:00 PM,SA 01:00 PM,,38.2972761299,-122.2874849753
9480600012,USPS COLLECTION BOX - BLUE BOX,13201 SAN PABLO AVE,RICHMOND,CA,94806,MO 10:00 AM,TU 10:00 AM,WE 10:00 AM,TH 10:00 AM,FR 10:00 AM,SA 10:00 AM,,37.951533,-122.333247
9458800018,USPS COLLECTION BOX - BLUE BOX,4040 PIMLICO DR,PLEASANTON,CA,94588,MO 03:00 PM,TU 03:00 PM,WE 03:00 PM,TH 03:00 PM,FR 03:00 PM,SA 01:00 PM,,37.7001955245,-121.8700885284
1007500017,USPS COLLECTION BOX - BLUE BOX,991 MADISON AVE,NEW YORK,NY,10075,MO 12:00 PM,TU 12:00 PM,WE 12:00 PM,TH 12:00 PM,FR 12:00 PM,SA 11:00 AM,,40.774773018,-73.9632231783
4305400008,USPS COLLECTION BOX - BLUE BOX,7400 W CAMPUS RD,NEW ALBANY,OH,43054,MO 09:45 AM,TU 09:45 AM,WE 09:45 AM,TH 09:45 AM,FR 09:45 AM,SA 09:45 AM,,40.1054174445,-82.8192577061
3330900019,USPS COLLECTION BOX - BLUE BOX,2800 NW 49TH COURT,OAKLAND PARK,FL,33309,MO 02:45 PM,TU 02:45 PM,WE 02:45 PM,TH 02:45 PM,FR 02:45 PM,SA 01:00 PM,,26.187030244,-80.17946358
1047300078,USPS COLLECTION BOX - BLUE BOX,1967 TURNBULL AVE,BRONX,NY,10473,MO 02:00 PM,TU 02:00 PM,WE 02:00 PM,TH 02:00 PM,FR 02:00 PM,SA 02:00 PM,,40.823523,-73.857177
1047400008,USPS COLLECTION BOX - BLUE BOX,1358 RANDALL AVE,BRONX,NY,10474,MO 11:00 AM,TU 11:00 AM,WE 11:00 AM,TH 11:00 AM,FR 11:00 AM,SA 11:45 AM,,40.812556345,-73.883195674
6155400019,USPS COLLECTION BOX - BLUE BOX,104 JOLIET RD,NORTH PEKIN,IL,61554,MO 12:30 PM,TU 12:30 PM,WE 12:30 PM,TH 12:30 PM,FR 12:30 PM,SA 12:30 PM,,40.6192466192,-89.60229469
1170400008,USPS COLLECTION BOX - BLUE BOX,5TH AVE,WEST BABYLON,NY,11704,MO 12:00 PM,TU 12:00 PM,WE 12:00 PM,TH 12:00 PM,FR 12:00 PM,SA 01:00 PM,,40.7185019484,-73.3844915138
0861800016,USPS COLLECTION BOX - BLUE BOX,940 PARKWAY AVE,EWING,NJ,08618,MO 10:00 AM,TU 10:00 AM,WE 10:00 AM,TH 10:00 AM,FR 10:00 AM,SA 10:00 AM,,40.255595474,-74.792703457
0861800056,USPS COLLECTION BOX - BLUE BOX,940 PARKWAY AVE,EWING,NJ,08618,MO 10:00 AM,TU 10:00 AM,WE 10:00 AM,TH 10:00 AM,FR 10:00 AM,SA 10:00 AM,,40.255595474,-74.792703457
9250300014,USPS COLLECTION BOX - BLUE BOX,3700 PIERCE ST,RIVERSIDE,CA,92503,MO 02:00 PM,TU 02:00 PM,WE 02:00 PM,TH 02:00 PM,FR 02:00 PM,SA 02:00 PM,,33.8933450344,-117.4897818952
6063800107,USPS COLLECTION BOX - BLUE BOX,5701 S SAYRE AVE,CHICAGO,IL,60638,MO 10:00 AM,TU 10:00 AM,WE 10:00 AM,TH 10:00 AM,FR 10:00 AM,SA 12:00 PM,,41.788323,-87.796035
5543900066,USPS COLLECTION BOX - BLUE BOX,7505 METRO BLVD,MINNEAPOLIS,MN,55439,MO 05:00 PM,TU 05:00 PM,WE 05:00 PM,TH 05:00 PM,FR 05:00 PM,,,44.866458,-93.352608
6337300001,USPS COLLECTION BOX - BLUE BOX,1375 CLARK ST,PRTG DE SIOUX,MO,63373,MO 10:45 AM,TU 10:45 AM,WE 10:45 AM,TH 10:45 AM,FR 10:45 AM,SA 09:45 AM,,38.9248751729,-90.3422108124
6337300002,USPS COLLECTION BOX - PO LOBBY,1375 CLARK ST,PRTG DE SIOUX,MO,63373,MO 10:45 AM,TU 10:45 AM,WE 10:45 AM,TH 10:45 AM,FR 10:45 AM,SA 09:45 AM,,38.9248751729,-90.3422108124
6337300003,USPS COLLECTION BOX - PO LOBBY,1375 CLARK ST,PRTG DE SIOUX,MO,63373,MO 10:45 AM,TU 10:45 AM,WE 10:45 AM,TH 10:45 AM,FR 10:45 AM,SA 09:45 AM,,38.9248751729,-90.3422108124
7494600003,USPS COLLECTION BOX - PO LOBBY,400 BELT AVE,MOFFETT,OK,74946,MO 11:00 AM,TU 11:00 AM,WE 11:00 AM,TH 11:00 AM,FR 11:00 AM,SA 10:45 AM,,35.3905357426,-94.4456613155
4810100043,USPS COLLECTION BOX - BLUE BOX,8467 PARK AVE,ALLEN PARK,MI,48101,MO 01:00 PM,TU 01:00 PM,WE 01:00 PM,TH 01:00 PM,FR 01:00 PM,SA 01:00 PM,,42.2457211465,-83.213464513
0232400036,USPS COLLECTION BOX - BLUE BOX,1 LAKESHORE CTR,BRIDGEWATER,MA,02324,MO 09:00 AM,TU 09:00 AM,WE 09:00 AM,TH 09:00 AM,FR 09:00 AM,SA 09:00 AM,,41.9615991013,-71.0357661888
0230100013,USPS COLLECTION BOX - BLUE BOX,828 BELMONT ST,BROCKTON,MA,02301,MO 03:00 PM,TU 03:00 PM,WE 03:00 PM,TH 03:00 PM,FR 03:00 PM,SA 12:00 PM,,42.067098,-71.050797
0230100030,USPS COLLECTION BOX - BLUE BOX,233 FOREST AVE,BROCKTON,MA,02301,MO 12:00 PM,TU 12:00 PM,WE 12:00 PM,TH 12:00 PM,FR 12:00 PM,SA 12:00 PM,,42.0713275484,-71.029401019
4051100014,USPS COLLECTION BOX - BLUE BOX,1588 LEESTOWN RD,LEXINGTON,KY,40511,MO 10:00 AM,TU 10:00 AM,WE 10:00 AM,TH 10:00 AM,FR 10:00 AM,,,38.06560798,-84.525813025
4051100005,USPS COLLECTION BOX - BLUE BOX,1416 N FORBES RD,LEXINGTON,KY,40511,MO 10:15 AM,TU 10:15 AM,WE 10:15 AM,TH 10:15 AM,FR 10:15 AM,,,38.065408994,-84.519831028
4051100089,USPS COLLECTION BOX - BLUE BOX,1720 SHARKEY WAY,LEXINGTON,KY,40511,MO 10:00 AM,TU 10:00 AM,WE 10:00 AM,TH 10:00 AM,FR 10:00 AM,,,38.067740001,-84.528289039
4050900069,USPS COLLECTION BOX - BLUE BOX,1880 PLAUDIT PL,LEXINGTON,KY,40509,MO 04:15 PM,TU 04:15 PM,WE 04:15 PM,TH 04:15 PM,FR 04:15 PM,,,38.0177704574,-84.4170500452
9802200013,USPS COLLECTION BOX - BLUE BOX,1339 GRIFFIN AVE,ENUMCLAW,WA,98022,MO 02:30 PM,TU 02:30 PM,WE 02:30 PM,TH 02:30 PM,FR 02:30 PM,SA 11:30 AM,,47.2044849802,-121.9908959893
9837500001,USPS COLLECTION BOX - BLUE BOX,16116 MERIDIAN E,PUYALLUP,WA,98375,MO 11:30 AM,TU 11:30 AM,WE 11:30 AM,TH 11:30 AM,FR 11:30 AM,SA 11:30 AM,,47.109384,-122.2945875
9844500003,USPS COLLECTION BOX - BLUE BOX,10323 PORTLAND AVE E,TACOMA,WA,98445,MO 01:45 PM,TU 01:45 PM,WE 01:45 PM,TH 01:45 PM,FR 01:45 PM,SA 12:30 PM,,47.162781,-122.404599
6364000013,USPS COLLECTION BOX - BLUE BOX,"614 WALMART DR,",FARMINGTON,MO,63640,MO 10:30 AM,TU 10:30 AM,WE 10:30 AM,TH 10:30 AM,FR 10:30 AM,SA 10:30 AM,,37.7885458165,-90.43165553
0744200001,USPS COLLECTION BOX - BLUE BOX,115 WANAQUE AVE,POMPTON LAKES,NJ,07442,MO 11:00 AM,TU 11:00 AM,WE 11:00 AM,TH 11:00 AM,FR 11:00 AM,SA 10:00 AM,,41.006066637,-74.2914545473
0743000028,USPS COLLECTION BOX - BLUE BOX,123 CHAPEL RD,MAHWAH,NJ,07430,MO 02:00 PM,TU 02:00 PM,WE 02:00 PM,TH 02:00 PM,FR 02:00 PM,SA 02:00 PM,,41.0371550131,-74.1813349976
9723000020,USPS COLLECTION BOX - BLUE BOX,12425 NE GLISAN ST,PORTLAND,OR,97230,MO 05:00 PM,TU 05:00 PM,WE 05:00 PM,TH 05:00 PM,FR 05:00 PM,SA 01:00 PM,,45.527346,-122.536368
3030700007,USPS COLLECTION BOX - BLUE BOX,675 SEMINOLE AVE NE,ATLANTA,GA,30307,MO 10:00 AM,TU 10:00 AM,WE 10:00 AM,TH 10:00 AM,FR 10:00 AM,SA 10:00 AM,,33.7729537094,-84.3506607043
3030600009,USPS COLLECTION BOX - BLUE BOX,999 VIRGINIA AVE NE,ATLANTA,GA,30306,MO 10:00 AM,TU 10:00 AM,WE 10:00 AM,TH 10:00 AM,FR 10:00 AM,SA 10:00 AM,,33.7822469007,-84.3548380448
0701100133,USPS COLLECTION BOX - BLUE BOX,266 MAIN AVE,CLIFTON,NJ,07011,MO 05:00 PM,TU 05:00 PM,WE 05:00 PM,TH 05:00 PM,FR 05:00 PM,SA 12:00 PM,,40.8352780006,-74.1377614776
8382300001,USPS COLLECTION BOX - BLUE BOX,401 LINE ST,DEARY,ID,83823,MO 02:00 PM,TU 02:00 PM,WE 02:00 PM,TH 02:00 PM,FR 02:00 PM,SA 12:00 PM,,46.7995560272,-116.5622765017
7706000091,USPS COLLECTION BOX - BLUE BOX,426 ALDINE BENDER RD,HOUSTON,TX,77060,MO 03:00 PM,TU 03:00 PM,WE 03:00 PM,TH 03:00 PM,FR 03:00 PM,,,29.931543,-95.39262
0604000071,USPS COLLECTION BOX - BLUE BOX,773 MAIN ST,MANCHESTER,CT,06040,MO 01:30 PM,TU 01:30 PM,WE 01:30 PM,TH 01:30 PM,FR 01:30 PM,SA 01:30 PM,,41.771583,-72.520821
2860200016,USPS COLLECTION BOX - BLUE BOX,1375 LENOIR RHYNE BLVD SE,HICKORY,NC,28602,MO 11:00 AM,TU 11:00 AM,WE 11:00 AM,TH 11:00 AM,FR 11:00 AM,SA 11:00 AM,,35.710461,-81.310059
2860100006,USPS COLLECTION BOX - BLUE BOX,202 UNION SQ NW,HICKORY,NC,28601,MO 10:00 AM,TU 10:00 AM,WE 10:00 AM,TH 10:00 AM,FR 10:00 AM,SA 10:00 AM,,35.732547,-81.339804
9505100057,USPS COLLECTION BOX - BLUE BOX,3577 HOMESTEAD RD,SANTA CLARA,CA,95051,MO 03:00 PM,TU 03:00 PM,WE 03:00 PM,TH 03:00 PM,FR 03:00 PM,SA 12:00 PM,,37.3379040634,-121.9949331791
8800100015,USPS COLLECTION BOX - BLUE BOX,2100 DESERT DR,LAS CRUCES,NM,88001,MO 10:05 AM,TU 10:05 AM,WE 10:05 AM,TH 10:05 AM,FR 10:05 AM,SA 08:30 AM,,32.331708,-106.7709285
0130100052,USPS COLLECTION BOX - BLUE BOX,7 BRATTLEBORO RD,GREENFIELD,MA,01301,MO 10:00 AM,TU 10:00 AM,WE 10:00 AM,TH 10:00 AM,FR 10:00 AM,SA 10:00 AM,,42.6916568881,-72.6277207015
1277100031,USPS COLLECTION BOX - BLUE BOX,209 ROUTE 209,PORT JERVIS,NY,12771,MO 10:00 AM,TU 10:00 AM,WE 10:00 AM,TH 10:00 AM,FR 10:00 AM,SA 10:00 AM,,41.4030038119,-74.6466371628
4271600003,USPS COLLECTION BOX - PO LOBBY,2159B GREENSBURG RD,BUFFALO,KY,42716,MO 03:30 PM,TU 03:30 PM,WE 03:30 PM,TH 03:30 PM,FR 03:30 PM,SA 12:00 PM,,37.513509997,-85.699959996
4271600004,USPS COLLECTION BOX - PO LOBBY,2159B GREENSBURG RD,BUFFALO,KY,42716,MO 03:30 PM,TU 03:30 PM,WE 03:30 PM,TH 03:30 PM,FR 03:30 PM,SA 12:00 PM,,37.513509997,-85.699959996
9004900050,USPS COLLECTION BOX - BLUE BOX,100 BEL AIR RD,LOS ANGELES,CA,90049,MO 12:30 PM,TU 12:30 PM,WE 12:30 PM,TH 12:30 PM,FR 12:30 PM,,,34.0811278236,-118.4357283419
1122300012,USPS COLLECTION BOX - BLUE BOX,208 VAN SICKLEN ST,BROOKLYN,NY,11223,MO 11:00 AM,TU 11:00 AM,WE 11:00 AM,TH 11:00 AM,FR 11:00 AM,SA 11:00 AM,,40.599235571,-73.974710199
6478400004,USPS COLLECTION BOX - PO LOBBY,300 W MAIN ST,SHELDON,MO,64784,MO 02:30 PM,TU 02:30 PM,WE 02:30 PM,TH 02:30 PM,FR 02:30 PM,SA 09:00 AM,,37.6580754677,-94.2947004133
6478400005,USPS COLLECTION BOX - BLUE BOX,300 W MAIN ST,SHELDON,MO,64784,MO 04:00 PM,TU 04:00 PM,WE 04:00 PM,TH 04:00 PM,FR 04:00 PM,SA 04:00 PM,,37.6580754677,-94.2947004133
6478400006,USPS COLLECTION BOX - PO LOBBY,300 W MAIN ST,SHELDON,MO,64784,MO 03:30 PM,TU 03:30 PM,WE 03:30 PM,TH 03:30 PM,FR 03:30 PM,SA 09:30 AM,,37.6580754677,-94.2947004133
7874600065,USPS COLLECTION BOX - BLUE BOX,1122 S CAPITAL OF TEXAS HWY,WEST LAKE HILLS,TX,78746,MO 05:15 PM,TU 05:15 PM,WE 05:15 PM,TH 05:15 PM,FR 05:15 PM,,,30.281283,-97.82496
7870300021,USPS COLLECTION BOX - BLUE BOX,1425 PRESTON AVE,AUSTIN,TX,78703,MO 02:15 PM,TU 02:15 PM,WE 02:15 PM,TH 02:15 PM,FR 02:15 PM,SA 02:15 PM,,30.2967380082,-97.7539990087
7870500067,USPS COLLECTION BOX - BLUE BOX,801 W 24TH ST,AUSTIN,TX,78705,MO 12:15 PM,TU 12:15 PM,WE 12:15 PM,TH 12:15 PM,FR 12:15 PM,,,30.288037852,-97.746285835
7870400079,USPS COLLECTION BOX - BLUE BOX,4000 S IH 35,AUSTIN,TX,78704,MO 02:00 PM,TU 02:00 PM,WE 02:00 PM,TH 02:00 PM,FR 02:00 PM,,,30.21831,-97.7527575
7874100011,USPS COLLECTION BOX - BLUE BOX,2223 BURTON DR,AUSTIN,TX,78741,MO 12:45 PM,TU 12:45 PM,WE 12:45 PM,TH 12:45 PM,FR 12:45 PM,SA 12:00 PM,,30.231117,-97.7332455
5598700033,USPS COLLECTION BOX - BLUE BOX,375  COTTONWOOD DR,WINONA,MN,55987,MO 12:00 PM,TU 12:00 PM,WE 12:00 PM,TH 12:00 PM,FR 12:00 PM,SA 12:00 PM,,44.053892065,-91.690685686
0124700040,USPS COLLECTION BOX - BLUE BOX,60 ROBERTS DR.,NORTH ADAMS,MA,01247,MO 01:00 PM,TU 01:00 PM,WE 01:00 PM,TH 01:00 PM,FR 01:00 PM,SA 12:30 PM,,42.699213,-73.1383425
6720300017,USPS COLLECTION BOX - BLUE BOX,3330 W DOUGLAS AVE,WICHITA,KS,67203,MO 03:55 PM,TU 03:55 PM,WE 03:55 PM,TH 03:55 PM,FR 03:55 PM,,,37.684007494,-97.382987749
9180100063,USPS COLLECTION BOX - BLUE BOX,430 S GARFIELD AVE,ALHAMBRA,CA,91801,MO 10:00 AM,TU 10:00 AM,WE 10:00 AM,TH 10:00 AM,FR 10:00 AM,SA 10:00 AM,,34.0901502629,-118.1233289461
9224100000,USPS COLLECTION BOX - BLUE BOX,70200 DILLON RD,DSRT HOT SPGS,CA,92241,MO 01:00 PM,TU 01:00 PM,WE 01:00 PM,TH 01:00 PM,FR 01:00 PM,SA 01:00 PM,,33.925204491,-116.436800537
6334700001,USPS COLLECTION BOX - BLUE BOX,467 ADDISON ST,FOLEY,MO,63347,MO 04:15 PM,TU 04:15 PM,WE 04:15 PM,TH 04:15 PM,FR 04:15 PM,SA 10:45 AM,,39.045237421,-90.742070446
6334700002,USPS COLLECTION BOX - PO LOBBY,467 ADDISON ST,FOLEY,MO,63347,MO 04:15 PM,TU 04:15 PM,WE 04:15 PM,TH 04:15 PM,FR 04:15 PM,SA 10:45 AM,,39.045237421,-90.742070446
6334700004,USPS COLLECTION BOX - PO LOBBY,467 ADDISON ST,FOLEY,MO,63347,MO 04:15 PM,TU 04:15 PM,WE 04:15 PM,TH 04:15 PM,FR 04:15 PM,SA 10:45 AM,,39.045237421,-90.742070446
7764000029,USPS COLLECTION BOX - BLUE BOX,700 W GULFWAY DR,PORT ARTHUR,TX,77640,MO 04:45 PM,TU 04:45 PM,WE 04:45 PM,TH 04:45 PM,FR 04:45 PM,,,29.871252,-93.953943
4166700000,USPS COLLECTION BOX - BLUE BOX,1905 KY ROUTE 466,WEEKSBURY,KY,41667,MO 11:15 AM,TU 11:15 AM,WE 11:15 AM,TH 11:15 AM,FR 11:15 AM,SA 11:15 AM,,37.3278839046,-82.692493626
4166700001,USPS COLLECTION BOX - PO LOBBY,1905 KY ROUTE 466,WEEKSBURY,KY,41667,MO 11:15 AM,TU 11:15 AM,WE 11:15 AM,TH 11:15 AM,FR 11:15 AM,SA 11:15 AM,,37.3278839046,-82.692493626
4166700003,USPS COLLECTION BOX - PO LOBBY,1905 KY ROUTE 466,WEEKSBURY,KY,41667,MO 11:15 AM,TU 11:15 AM,WE 11:15 AM,TH 11:15 AM,FR 11:15 AM,SA 11:15 AM,,37.3278839046,-82.692493626
7862800005,USPS COLLECTION BOX - BLUE BOX,100 POPPY HILLS DR,GEORGETOWN,TX,78628,MO 12:00 PM,TU 12:00 PM,WE 12:00 PM,TH 12:00 PM,FR 12:00 PM,SA 12:00 PM,,30.7045803861,-97.6737073262
0797400031,USPS COLLECTION BOX - BLUE BOX,111 SOUTH ST,NEW PROVIDENCE,NJ,07974,MO 03:00 PM,TU 03:00 PM,WE 03:00 PM,TH 03:00 PM,FR 03:00 PM,SA 11:00 AM,,40.7023846829,-74.4053036944
3027400012,USPS COLLECTION BOX - BLUE BOX,7137 HIGHWAY 85,RIVERDALE,GA,30274,MO 02:30 PM,TU 02:30 PM,WE 02:30 PM,TH 02:30 PM,FR 02:30 PM,SA 09:00 AM,,33.560015531,-84.413987679
0706500043,USPS COLLECTION BOX - BLUE BOX,865 STONE ST,RAHWAY,NJ,07065,MO 11:00 AM,TU 11:00 AM,WE 11:00 AM,TH 11:00 AM,FR 11:00 AM,SA 11:00 AM,,40.6121929676,-74.2912317774
9001300087,USPS COLLECTION BOX - APC,506 S. SPRING ST  LOBBY,LOS ANGELES,CA,90013,MO 05:00 PM,TU 05:00 PM,WE 05:00 PM,TH 05:00 PM,FR 05:00 PM,,,34.04717756,-118.24980506
9001300088,USPS COLLECTION BOX - PO LOBBY,506 S SPRING ST LOBBY,LOS ANGELES,CA,90013,MO 05:00 PM,TU 05:00 PM,WE 05:00 PM,TH 05:00 PM,FR 05:00 PM,,,34.0471775595,-118.2498050595
9001200205,USPS COLLECTION BOX - PO LOBBY,300 N LOS ANGELES ST LOBBY,LOS ANGELES,CA,90012,MO 04:30 PM,TU 04:30 PM,WE 04:30 PM,TH 04:30 PM,FR 04:30 PM,,,34.054101,-118.239534
7875400014,USPS COLLECTION BOX - BLUE BOX,8407 WALL ST,AUSTIN,TX,78754,MO 06:00 PM,TU 06:00 PM,WE 06:00 PM,TH 06:00 PM,FR 06:00 PM,SA 04:15 PM,,30.338148451,-97.675519029
7872300009,USPS COLLECTION BOX - BLUE BOX,7112 ED BLUESTEIN BLVD,AUSTIN,TX,78723,MO 01:00 PM,TU 01:00 PM,WE 01:00 PM,TH 01:00 PM,FR 01:00 PM,,,30.312558,-97.663797
5352000003,USPS COLLECTION BOX - BLUE BOX,1001 W EXCHANGE ST,BRODHEAD,WI,53520,MO 02:45 PM,TU 02:45 PM,WE 02:45 PM,TH 02:45 PM,FR 02:45 PM,SA 11:00 AM,,42.6198478619,-89.3781238619
1143200092,USPS COLLECTION BOX - BLUE BOX,15502 90TH AVE,JAMAICA,NY,11432,MO 08:00 AM,TU 08:00 AM,WE 08:00 AM,TH 08:00 AM,FR 08:00 AM,SA 08:00 AM,,40.704381,-73.801899
9802100007,USPS COLLECTION BOX - BLUE BOX,22624 MERIDIAN AVE S,BOTHELL,WA,98021,MO 12:00 PM,TU 12:00 PM,WE 12:00 PM,TH 12:00 PM,FR 12:00 PM,SA 12:00 PM,,47.792016,-122.2330124087
1030900010,USPS COLLECTION BOX - BLUE BOX,80 SOUTH GOFF AVE,STATEN ISLAND,NY,10309,MO 10:30 AM,TU 10:30 AM,WE 10:30 AM,TH 10:30 AM,FR 10:30 AM,SA 09:30 AM,,40.5203479736,-74.2111752921
1383500001,USPS COLLECTION BOX - BLUE BOX,1007 STATE ROUTE 79,RICHFORD,NY,13835,MO 11:00 AM,TU 11:00 AM,WE 11:00 AM,TH 11:00 AM,FR 11:00 AM,SA 11:00 AM,,42.3565161324,-76.200095404
1383500008,USPS COLLECTION BOX - PO LOBBY,1007 STATE ROUTE 79,RICHFORD,NY,13835,MO 11:00 AM,TU 11:00 AM,WE 11:00 AM,TH 11:00 AM,FR 11:00 AM,SA 11:00 AM,,42.3565161324,-76.200095404
0881600029,USPS COLLECTION BOX - BLUE BOX,206 STATE ROUTE 18,EAST BRUNSWICK,NJ,08816,MO 11:00 AM,TU 11:00 AM,WE 11:00 AM,TH 11:00 AM,FR 11:00 AM,SA 11:00 AM,,40.468886449,-74.4081896021
5235300006,USPS COLLECTION BOX - BLUE BOX,224 W MAIN ST,WASHINGTON,IA,52353,MO 03:00 PM,TU 03:00 PM,WE 03:00 PM,TH 03:00 PM,FR 03:00 PM,SA 03:00 PM,,41.2995519503,-91.6933738413
9810101635,USPS COLLECTION BOX - BLUE BOX,1501 2ND AVE,SEATTLE,WA,98101,MO 05:00 PM,TU 05:00 PM,WE 05:00 PM,TH 05:00 PM,FR 05:00 PM,,,47.60953748,-122.339233508
9810101651,USPS COLLECTION BOX - BLUE BOX,1435 WESTERN AVE,SEATTLE,WA,98101,MO 03:00 PM,TU 03:00 PM,WE 03:00 PM,TH 03:00 PM,FR 03:00 PM,,,47.6080137499,-122.3409392184
9810100874,USPS COLLECTION BOX - BLUE BOX,1933 MINOR AVE,SEATTLE,WA,98101,MO 02:00 PM,TU 02:00 PM,WE 02:00 PM,TH 02:00 PM,FR 02:00 PM,,,47.6182268501,-122.332965977
9812202167,USPS COLLECTION BOX - BLUE BOX,800 12TH AVE,SEATTLE,WA,98122,MO 10:00 AM,TU 10:00 AM,WE 10:00 AM,TH 10:00 AM,FR 10:00 AM,SA 10:00 AM,,47.6093606647,-122.3167402889
4882300019,USPS COLLECTION BOX - BLUE BOX,225 E GRAND RIVER AVE,EAST LANSING,MI,48823,MO 01:00 PM,TU 01:00 PM,WE 01:00 PM,TH 01:00 PM,FR 01:00 PM,SA 01:00 PM,,42.73488,-84.481749
6064300088,USPS COLLECTION BOX - BLUE BOX,12358 S HALSTED ST,CHICAGO,IL,60643,MO 12:00 PM,TU 12:00 PM,WE 12:00 PM,TH 12:00 PM,FR 12:00 PM,SA 12:00 PM,,41.6689336301,-87.6417445853
2905600003,USPS COLLECTION BOX - PO LOBBY,24 C.E. MURRY BLVD,GREELEYVILLE,SC,29056,MO 03:45 PM,TU 03:45 PM,WE 03:45 PM,TH 03:45 PM,FR 03:45 PM,SA 09:45 AM,,33.581408612,-79.990049841
2905600004,USPS COLLECTION BOX - PO LOBBY,24 C.E. MURRY BLVD,GREELEYVILLE,SC,29056,MO 03:45 PM,TU 03:45 PM,WE 03:45 PM,TH 03:45 PM,FR 03:45 PM,SA 09:45 AM,,33.581408612,-79.990049841
9222000004,USPS COLLECTION BOX - BLUE BOX,158 N SUNSET AVE,BANNING,CA,92220,MO 02:00 PM,TU 02:00 PM,WE 02:00 PM,TH 02:00 PM,FR 02:00 PM,SA 02:00 PM,,33.9269971509,-116.9117406755
9840500037,USPS COLLECTION BOX - BLUE BOX,1421 S J ST,TACOMA,WA,98405,MO 12:00 PM,TU 12:00 PM,WE 12:00 PM,TH 12:00 PM,FR 12:00 PM,SA 12:00 PM,,47.2488473511,-122.4494496948
5970100067,USPS COLLECTION BOX - BLUE BOX,501 S EXCELSIOR AVE,BUTTE,MT,59701,MO 02:00 PM,TU 02:00 PM,WE 02:00 PM,TH 02:00 PM,FR 02:00 PM,SA 02:00 PM,,46.008252,-112.5494900598
1334600023,USPS COLLECTION BOX - BLUE BOX,3 BROAD ST,HAMILTON,NY,13346,MO 03:45 PM,TU 03:45 PM,WE 03:45 PM,TH 03:45 PM,FR 03:45 PM,SA 12:00 PM,,42.8268057902,-75.5434360326
9752600038,USPS COLLECTION BOX - BLUE BOX,3500 MERLIN RD,GRANTS PASS,OR,97526,MO 12:30 PM,TU 12:30 PM,WE 12:30 PM,TH 12:30 PM,FR 12:30 PM,SA 12:30 PM,,42.4963650234,-123.3690529767
0705400098,USPS COLLECTION BOX - BLUE BOX,7 ENTIN RD,PARSIPPANY,NJ,07054,MO 01:00 PM,TU 01:00 PM,WE 01:00 PM,TH 01:00 PM,FR 01:00 PM,,,40.845471299,-74.431027836
6061000258,USPS COLLECTION BOX - BLUE BOX,900 N ORLEANS ST,CHICAGO,IL,60610,MO 03:00 PM,TU 03:00 PM,WE 03:00 PM,TH 03:00 PM,FR 03:00 PM,SA 12:00 PM,,41.8989610189,-87.6372985234
5340400004,USPS COLLECTION BOX - BLUE BOX,2210 RAPIDS DR,RACINE,WI,53404,MO 12:00 PM,TU 12:00 PM,WE 12:00 PM,TH 12:00 PM,FR 12:00 PM,SA 12:00 PM,,42.749351018,-87.808114005
9720100253,USPS COLLECTION BOX - BLUE BOX,1010 SW JEFFERSON ST,PORTLAND,OR,97201,MO 10:00 AM,TU 10:00 AM,WE 10:00 AM,TH 10:00 AM,FR 10:00 AM,,,45.515826,-122.684976
9840600021,USPS COLLECTION BOX - BLUE BOX,4315 6TH AVE,TACOMA,WA,98406,MO 10:00 AM,TU 10:00 AM,WE 10:00 AM,TH 10:00 AM,FR 10:00 AM,SA 10:00 AM,,47.255859,-122.495373
4543900029,USPS COLLECTION BOX - BLUE BOX,2298 LEHIGH PL,MORAINE,OH,45439,MO 09:00 AM,TU 09:00 AM,WE 09:00 AM,TH 09:00 AM,FR 09:00 AM,,,39.6853806125,-84.2116961524
5320900051,USPS COLLECTION BOX - BLUE BOX,7200 N 43RD ST,MILWAUKEE,WI,53209,MO 12:00 PM,TU 12:00 PM,WE 12:00 PM,TH 12:00 PM,FR 12:00 PM,SA 12:00 PM,,43.1487445193,-87.9653299096
0213500057,USPS COLLECTION BOX - BLUE BOX,41 CHESTNUT HILL AVE,BRIGHTON,MA,02135,MO 01:00 PM,TU 01:00 PM,WE 01:00 PM,TH 01:00 PM,FR 01:00 PM,SA 01:00 PM,,42.346954698,-71.1536062558
1045100007,USPS COLLECTION BOX - BLUE BOX,135 E 150TH ST,BRONX,NY,10451,MO 10:00 AM,TU 10:00 AM,WE 10:00 AM,TH 10:00 AM,FR 10:00 AM,SA 10:00 AM,,40.8198792648,-73.9280884973
9266000060,USPS COLLECTION BOX - BLUE BOX,1515 WESTCLIFF DR,NEWPORT BEACH,CA,92660,MO 10:00 AM,TU 10:00 AM,WE 10:00 AM,TH 10:00 AM,FR 10:00 AM,SA 10:00 AM,,33.6256822365,-117.9048942284
9266000148,USPS COLLECTION BOX - BLUE BOX,1515 WESTCLIFF DR,NEWPORT BEACH,CA,92660,MO 10:00 AM,TU 10:00 AM,WE 10:00 AM,TH 10:00 AM,FR 10:00 AM,SA 10:00 AM,,33.6256822365,-117.9048942284
9261200048,USPS COLLECTION BOX - BLUE BOX,4521 CAMPUS DR,IRVINE,CA,92612,MO 10:00 AM,TU 10:00 AM,WE 10:00 AM,TH 10:00 AM,FR 10:00 AM,SA 10:00 AM,,33.6486229711,-117.8319318862
1390500024,USPS COLLECTION BOX - BLUE BOX,10 GLENWOOD AVE,BINGHAMTON,NY,13905,MO 10:00 AM,TU 10:00 AM,WE 10:00 AM,TH 10:00 AM,FR 10:00 AM,SA 10:00 AM,,42.1076767158,-75.9371232105
1703500005,USPS COLLECTION BOX - BLUE BOX,12988 ROUTE 75 S,HONEY GROVE,PA,17035,MO 04:00 PM,TU 04:00 PM,WE 04:00 PM,TH 04:00 PM,FR 04:00 PM,,,40.4014827213,-77.5537846302
4813100010,USPS COLLECTION BOX - BLUE BOX,107 WATERSTRADT COMMERCE DR,DUNDEE,MI,48131,MO 01:00 PM,TU 01:00 PM,WE 01:00 PM,TH 01:00 PM,FR 01:00 PM,SA 01:00 PM,,41.9586132151,-83.6744980807
4968400085,USPS COLLECTION BOX - BLUE BOX,160 E STATE ST,TRAVERSE CITY,MI,49684,MO 10:00 AM,TU 10:00 AM,WE 10:00 AM,TH 10:00 AM,FR 10:00 AM,SA 10:00 AM,,44.762634,-85.621293
3302000041,USPS COLLECTION BOX - BLUE BOX,2510 HOLLYWOOD BLVD,HOLLYWOOD,FL,33020,MO 03:15 PM,TU 03:15 PM,WE 03:15 PM,TH 03:15 PM,FR 03:15 PM,SA 01:00 PM,,26.0107768849,-80.1580116435
3302000044,USPS COLLECTION BOX - BLUE BOX,2339 HOLLYWOOD BLVD,HOLLYWOOD,FL,33020,MO 03:15 PM,TU 03:15 PM,WE 03:15 PM,TH 03:15 PM,FR 03:15 PM,SA 01:00 PM,,26.0112574827,-80.1543002216
3302000032,USPS COLLECTION BOX - BLUE BOX,2131 HOLLYWOOD BLVD,HOLLYWOOD,FL,33020,MO 03:00 PM,TU 03:00 PM,WE 03:00 PM,TH 03:00 PM,FR 03:00 PM,SA 01:00 PM,,26.011369486,-80.150849476
4405500025,USPS COLLECTION BOX - BLUE BOX,2709 BROADWAY,LORAIN,OH,44055,MO 11:00 AM,TU 11:00 AM,WE 11:00 AM,TH 11:00 AM,FR 11:00 AM,SA 11:00 AM,,41.4454983311,-82.1650081781
5504400017,USPS COLLECTION BOX - BLUE BOX,16179 KENRICK AVE,LAKEVILLE,MN,55044,MO 12:00 PM,TU 12:00 PM,WE 12:00 PM,TH 12:00 PM,FR 12:00 PM,SA 12:00 PM,,44.71461,-93.2804865
5504400018,USPS COLLECTION BOX - BLUE BOX,16179 KENRICK AVE,LAKEVILLE,MN,55044,MO 12:00 PM,TU 12:00 PM,WE 12:00 PM,TH 12:00 PM,FR 12:00 PM,SA 12:00 PM,,44.71461,-93.2804865
1341300047,USPS COLLECTION BOX - BLUE BOX,8635 CLINTON ST,NEW HARTFORD,NY,13413,MO 04:15 PM,TU 04:15 PM,WE 04:15 PM,TH 04:15 PM,FR 04:15 PM,,,43.0898654407,-75.316812388
5447600014,USPS COLLECTION BOX - BLUE BOX,6205 BUSINESS HIGHWAY 51 S,SCHOFIELD,WI,54476,MO 09:00 AM,TU 09:00 AM,WE 09:00 AM,TH 09:00 AM,FR 09:00 AM,SA 09:00 AM,,44.901270798,-89.608200207
2073500010,USPS COLLECTION BOX - BLUE BOX,7533 OLD ALEX FERRY RD,CLINTON,MD,20735,MO 10:00 AM,TU 10:00 AM,WE 10:00 AM,TH 10:00 AM,FR 10:00 AM,SA 10:00 AM,,38.7536798,-76.8897898
5484600002,USPS COLLECTION BOX - PO LOBBY,39255 STATE HIGHWAY 13,HIGH BRIDGE,WI,54846,MO 11:45 AM,TU 11:45 AM,WE 11:45 AM,TH 11:45 AM,FR 11:45 AM,SA 10:00 AM,,46.389402,-90.735516
0230100071,USPS COLLECTION BOX - BLUE BOX,50 OAK ST EXT,BROCKTON,MA,02301,MO 02:00 PM,TU 02:00 PM,WE 02:00 PM,TH 02:00 PM,FR 02:00 PM,SA 12:00 PM,,42.099949055,-71.065010624
5704800001,USPS COLLECTION BOX - BLUE BOX,105 W MAIN ST,MONTROSE,SD,57048,MO 04:15 PM,TU 04:15 PM,WE 04:15 PM,TH 04:15 PM,FR 04:15 PM,SA 05:15 PM,,43.7009581448,-97.1838021107
5704800002,USPS COLLECTION BOX - PO LOBBY,105 W MAIN ST,MONTROSE,SD,57048,MO 11:30 AM,TU 11:30 AM,WE 11:30 AM,TH 11:30 AM,FR 11:30 AM,SA 09:45 AM,,43.700958145,-97.183802111
5701600001,USPS COLLECTION BOX - BLUE BOX,410 4TH ST,CHESTER,SD,57016,MO 04:30 PM,TU 04:30 PM,WE 04:30 PM,TH 04:30 PM,FR 04:30 PM,SA 05:00 PM,,43.894829896,-96.927547807
5701600002,USPS COLLECTION BOX - PO LOBBY,410 4TH ST,CHESTER,SD,57016,MO 04:30 PM,TU 04:30 PM,WE 04:30 PM,TH 04:30 PM,FR 04:30 PM,SA 02:30 PM,,43.894829896,-96.927547807
5701600004,USPS COLLECTION BOX - PO LOBBY,410 4TH ST,CHESTER,SD,57016,MO 04:30 PM,TU 04:30 PM,WE 04:30 PM,TH 04:30 PM,FR 04:30 PM,SA 02:30 PM,,43.894829896,-96.927547807
9132600028,USPS COLLECTION BOX - BLUE BOX,19881 RINALDI ST,PORTER RANCH,CA,91326,MO 10:00 AM,TU 10:00 AM,WE 10:00 AM,TH 10:00 AM,FR 10:00 AM,SA 10:00 AM,,34.2755672162,-118.5681502289
8571400013,USPS COLLECTION BOX - BLUE BOX,902 W IRVINGTON RD,TUCSON,AZ,85714,MO 01:30 PM,TU 01:30 PM,WE 01:30 PM,TH 01:30 PM,FR 01:30 PM,,,32.1632956826,-110.98197675
1122600017,USPS COLLECTION BOX - BLUE BOX,1045 FLATBUSH AVE,BROOKLYN,NY,11226,MO 11:00 AM,TU 11:00 AM,WE 11:00 AM,TH 11:00 AM,FR 11:00 AM,SA 11:00 AM,,40.645539,-73.9577025
9562400025,USPS COLLECTION BOX - BLUE BOX,8425 ELK GROVE FLORIN RD,ELK GROVE,CA,95624,MO 05:00 PM,TU 05:00 PM,WE 05:00 PM,TH 05:00 PM,FR 05:00 PM,SA 02:00 PM,,38.451492,-121.3703775
9040500060,USPS COLLECTION BOX - PO LOBBY,2720 NEILSON WAY LOBBY,SANTA MONICA,CA,90405,MO 05:00 PM,TU 05:00 PM,WE 05:00 PM,TH 05:00 PM,FR 05:00 PM,SA 02:00 PM,,34.000400788,-118.4830811
9819800850,USPS COLLECTION BOX - BLUE BOX,21815 MARINE VIEW DR S,DES MOINES,WA,98198,MO 01:30 PM,TU 01:30 PM,WE 01:30 PM,TH 01:30 PM,FR 01:30 PM,SA 02:30 PM,,47.406672,-122.3257545
0291900013,USPS COLLECTION BOX - BLUE BOX,2 CHERRY HILL RD,JOHNSTON,RI,02919,MO 11:00 AM,TU 11:00 AM,WE 11:00 AM,TH 11:00 AM,FR 11:00 AM,SA 11:00 AM,,41.8365431884,-71.4840614167
6080500006,USPS COLLECTION BOX - BLUE BOX,3450 W 97TH ST,CHICAGO,IL,60805,MO 12:00 PM,TU 12:00 PM,WE 12:00 PM,TH 12:00 PM,FR 12:00 PM,SA 12:00 PM,,41.7170409434,-87.7083117223
9681700015,USPS COLLECTION BOX - BLUE BOX,1240 AALA STREET,HONOLULU,HI,96817,MO 01:00 PM,TU 01:00 PM,WE 01:00 PM,TH 01:00 PM,FR 01:00 PM,SA 01:00 PM,,21.3157819439,-157.8623694806
0649200058,USPS COLLECTION BOX - BLUE BOX,314 MAIN ST,WALLINGFORD,CT,06492,MO 05:00 PM,TU 05:00 PM,WE 05:00 PM,TH 05:00 PM,FR 05:00 PM,SA 12:15 PM,,41.484596964,-72.823830405
5532800002,USPS COLLECTION BOX - BLUE BOX,45 BABCOCK,DELANO,MN,55328,MO 09:15 AM,TU 09:15 AM,WE 09:15 AM,TH 09:15 AM,FR 09:15 AM,SA 09:15 AM,,45.0355465245,-93.790278
4413400031,USPS COLLECTION BOX - BLUE BOX,1740 SNOW RD,CLEVELAND,OH,44134,MO 10:30 AM,TU 10:30 AM,WE 10:30 AM,TH 10:30 AM,FR 10:30 AM,SA 10:30 AM,,41.4051875527,-81.6948569753
1913600115,USPS COLLECTION BOX - BLUE BOX,7300 COTTAGE ST,PHILA,PA,19136,MO 09:00 AM,TU 09:00 AM,WE 09:00 AM,TH 09:00 AM,FR 09:00 AM,SA 09:00 AM,,40.0334079445,-75.0377382143
7757300040,USPS COLLECTION BOX - BLUE BOX,2280 GULF FWY S,LEAGUE CITY,TX,77573,MO 02:30 PM,TU 02:30 PM,WE 02:30 PM,TH 02:30 PM,FR 02:30 PM,SA 02:30 PM,,29.4809516141,-95.1003066741
9130700007,USPS COLLECTION BOX - BLUE BOX,24400 VANOWEN ST,WEST HILLS,CA,91307,MO 10:00 AM,TU 10:00 AM,WE 10:00 AM,TH 10:00 AM,FR 10:00 AM,SA 10:00 AM,,34.194940782,-118.6569215351
9136700085,USPS COLLECTION BOX - EXPRESS,21045 CALIFA ST,WOODLAND HILLS,CA,91367,MO 12:00 PM,TU 12:00 PM,WE 12:00 PM,TH 12:00 PM,FR 12:00 PM,SA 10:00 AM,,34.1772285318,-118.5919177785
6503200003,USPS COLLECTION BOX - BLUE BOX,16106 BERRY ST,EUGENE,MO,65032,MO 10:45 AM,TU 10:45 AM,WE 10:45 AM,TH 10:45 AM,FR 10:45 AM,SA 09:30 AM,,38.354012277,-92.4019313556
6503200004,USPS COLLECTION BOX - PO LOBBY,16106 BERRY ST,EUGENE,MO,65032,MO 10:45 AM,TU 10:45 AM,WE 10:45 AM,TH 10:45 AM,FR 10:45 AM,SA 09:30 AM,,38.354012277,-92.4019313556
9495000003,USPS COLLECTION BOX - PO LOBBY,10155 HIGHWAY 1,OLEMA,CA,94950,MO 03:15 PM,TU 03:15 PM,WE 03:15 PM,TH 03:15 PM,FR 03:15 PM,,,38.0435134299,-122.788900323
9495000005,USPS COLLECTION BOX - PO LOBBY,10155 HIGHWAY 1,OLEMA,CA,94950,MO 03:15 PM,TU 03:15 PM,WE 03:15 PM,TH 03:15 PM,FR 03:15 PM,,,38.0435134299,-122.788900323
7524702652,USPS COLLECTION BOX - BLUE BOX,8901 GOVERNORS ROW,DALLAS,TX,75247,MO 01:30 PM,TU 01:30 PM,WE 01:30 PM,TH 01:30 PM,FR 01:30 PM,,,32.8265242098,-96.8803609488
7874700001,USPS COLLECTION BOX - BLUE BOX,10819 CROWN COLONY DR,AUSTIN,TX,78747,MO 02:15 PM,TU 02:15 PM,WE 02:15 PM,TH 02:15 PM,FR 02:15 PM,SA 03:45 PM,,30.141034176,-97.7943833404
9714800003,USPS COLLECTION BOX - PO LOBBY,180 W FIRST ST,YAMHILL,OR,97148,MO 04:30 PM,TU 04:30 PM,WE 04:30 PM,TH 04:30 PM,FR 04:30 PM,SA 09:30 AM,,45.3408065188,-123.1888803579
9714800004,USPS COLLECTION BOX - PO LOBBY,180 W FIRST ST,YAMHILL,OR,97148,MO 04:30 PM,TU 04:30 PM,WE 04:30 PM,TH 04:30 PM,FR 04:30 PM,SA 09:30 AM,,45.3408065188,-123.1888803579
9582500157,USPS COLLECTION BOX - BLUE BOX,2233 WATT AVE,SACRAMENTO,CA,95825,MO 02:00 PM,TU 02:00 PM,WE 02:00 PM,TH 02:00 PM,FR 02:00 PM,SA 01:00 PM,,38.604717,-121.384089
7120100128,USPS COLLECTION BOX - BLUE BOX,111 N 3RD ST,MONROE,LA,71201,MO 04:15 PM,TU 04:15 PM,WE 04:15 PM,TH 04:15 PM,FR 04:15 PM,SA 12:00 PM,,32.502782594,-92.11600739
7120100129,USPS COLLECTION BOX - PO LOBBY,111 N 3RD ST,MONROE,LA,71201,MO 04:00 PM,TU 04:00 PM,WE 04:00 PM,TH 04:00 PM,FR 04:00 PM,SA 12:00 PM,,32.502782594,-92.11600739
7120100130,USPS COLLECTION BOX - PO LOBBY,111 N 3RD ST,MONROE,LA,71201,MO 04:15 PM,TU 04:15 PM,WE 04:15 PM,TH 04:15 PM,FR 04:15 PM,SA 12:00 PM,,32.502782594,-92.11600739
8714400001,USPS COLLECTION BOX - BLUE BOX,3200 CIVIC CENTER CIR NE,RIO RANCHO,NM,87144,MO 05:15 PM,TU 05:15 PM,WE 05:15 PM,TH 05:15 PM,FR 05:15 PM,,,35.3114494984,-106.6851820245
8714400003,USPS COLLECTION BOX - BLUE BOX,2020 AUTUMN SAGE AVE NE,RIO RANCHO,NM,87144,MO 03:00 PM,TU 03:00 PM,WE 03:00 PM,TH 03:00 PM,FR 03:00 PM,SA 03:00 PM,,35.276073499,-106.696251
9454100067,USPS COLLECTION BOX - BLUE BOX,22320 FOOTHILL BLVD,HAYWARD,CA,94541,MO 03:00 PM,TU 03:00 PM,WE 03:00 PM,TH 03:00 PM,FR 03:00 PM,SA 12:00 PM,,37.6782016442,-122.0837754672
9457700036,USPS COLLECTION BOX - BLUE BOX,777 DAVIS ST,SAN LEANDRO,CA,94577,MO 03:00 PM,TU 03:00 PM,WE 03:00 PM,TH 03:00 PM,FR 03:00 PM,,,37.723202174,-122.162849121
6065100027,USPS COLLECTION BOX - BLUE BOX,5600 W DIVISION ST,CHICAGO,IL,60651,MO 12:00 PM,TU 12:00 PM,WE 12:00 PM,TH 12:00 PM,FR 12:00 PM,SA 12:00 PM,,41.9021735332,-87.7657914745
9413200051,USPS COLLECTION BOX - BLUE BOX,1310 SLOAT BLVD,SAN FRANCISCO,CA,94132,MO 10:00 AM,TU 10:00 AM,WE 10:00 AM,TH 10:00 AM,FR 10:00 AM,SA 01:00 PM,,37.7343734655,-122.4863469534
9412200039,USPS COLLECTION BOX - BLUE BOX,1795 32ND AVE,SAN FRANCISCO,CA,94122,MO 01:00 PM,TU 01:00 PM,WE 01:00 PM,TH 01:00 PM,FR 01:00 PM,SA 11:00 AM,,37.753755896,-122.490467341
4321900054,USPS COLLECTION BOX - BLUE BOX,4600 INTERNATIONAL GTWY,COLUMBUS,OH,43219,MO 12:00 PM,TU 12:00 PM,WE 12:00 PM,TH 12:00 PM,FR 12:00 PM,,,39.9976071102,-82.8847837052
1045300033,USPS COLLECTION BOX - BLUE BOX,1645 GRAND AVE,BRONX,NY,10453,MO 01:00 PM,TU 01:00 PM,WE 01:00 PM,TH 01:00 PM,FR 01:00 PM,SA 01:00 PM,,40.8469791787,-73.9151622758
1045300007,USPS COLLECTION BOX - BLUE BOX,1590 UNDERCLIFF AVE,BRONX,NY,10453,MO 01:00 PM,TU 01:00 PM,WE 01:00 PM,TH 01:00 PM,FR 01:00 PM,SA 01:00 PM,,40.8485010808,-73.922452408
6301100115,USPS COLLECTION BOX - PO LOBBY,613 BIG BEND RD,ELLISVILLE,MO,63011,MO 05:00 PM,TU 05:00 PM,WE 05:00 PM,TH 05:00 PM,FR 05:00 PM,SA 12:30 PM,,38.5684047509,-90.5230122608
6301100116,USPS COLLECTION BOX - PO LOBBY,613 BIG BEND RD,ELLISVILLE,MO,63011,MO 05:00 PM,TU 05:00 PM,WE 05:00 PM,TH 05:00 PM,FR 05:00 PM,SA 12:30 PM,,38.5684047509,-90.5230122608
6313100105,USPS COLLECTION BOX - BLUE BOX,13075 MANCHESTER RD,SAINT LOUIS,MO,63131,MO 04:45 PM,TU 04:45 PM,WE 04:45 PM,TH 04:45 PM,FR 04:45 PM,SA 04:00 PM,,38.602591613,-90.461393926
7906500035,USPS COLLECTION BOX - BLUE BOX,311 W 30TH AVE,PAMPA,TX,79065,MO 04:15 PM,TU 04:15 PM,WE 04:15 PM,TH 04:15 PM,FR 04:15 PM,SA 02:30 PM,,35.5715825467,-100.9683898324
9150500045,USPS COLLECTION BOX - BLUE BOX,4200 W NATIONAL AVE,BURBANK,CA,91505,MO 10:00 AM,TU 10:00 AM,WE 10:00 AM,TH 10:00 AM,FR 10:00 AM,SA 10:00 AM,,34.1502610879,-118.3456409702
8021600063,USPS COLLECTION BOX - BLUE BOX,4300 HOLLY ST,DENVER,CO,80216,MO 12:00 PM,TU 12:00 PM,WE 12:00 PM,TH 12:00 PM,FR 12:00 PM,SA 12:00 PM,,39.7764203934,-104.9222657309
6065700067,USPS COLLECTION BOX - BLUE BOX,3230 N LINCOLN AVE,CHICAGO,IL,60657,MO 10:00 AM,TU 10:00 AM,WE 10:00 AM,TH 10:00 AM,FR 10:00 AM,SA 12:00 PM,,41.940486007,-87.669287091
2070800034,USPS COLLECTION BOX - BLUE BOX,11600 SPRINGFIELD RD,LAUREL,MD,20708,MO 12:00 PM,TU 12:00 PM,WE 12:00 PM,TH 12:00 PM,FR 12:00 PM,,,39.047677587,-76.856650455
0211400009,USPS COLLECTION BOX - BLUE BOX,60 CARDINAL OCONNELL WAY,BOSTON,MA,02114,MO 10:30 AM,TU 10:30 AM,WE 10:30 AM,TH 10:30 AM,FR 10:30 AM,,,42.362586534,-71.065165736
4060100096,USPS COLLECTION BOX - BLUE BOX,260 DEMOCRAT DR,FRANKFORT,KY,40601,MO 11:00 AM,TU 11:00 AM,WE 11:00 AM,TH 11:00 AM,FR 11:00 AM,,,38.172065632,-84.816597189
1123100021,USPS COLLECTION BOX - BLUE BOX,36 SEABRING ST,BROOKLYN,NY,11231,MO 01:00 PM,TU 01:00 PM,WE 01:00 PM,TH 01:00 PM,FR 01:00 PM,SA 11:00 AM,,40.680722598,-74.006619271
0685600137,USPS COLLECTION BOX - BLUE BOX,304 MAIN AVE,NORWALK,CT,06856,MO 01:00 PM,TU 01:00 PM,WE 01:00 PM,TH 01:00 PM,FR 01:00 PM,SA 01:00 PM,,41.135706,-73.4241465
0685600085,USPS COLLECTION BOX - BLUE BOX,70 NEW CANAAN AVE,NORWALK,CT,06856,MO 03:00 PM,TU 03:00 PM,WE 03:00 PM,TH 03:00 PM,FR 03:00 PM,SA 01:00 PM,,41.126931,-73.430406
0685600087,USPS COLLECTION BOX - BLUE BOX,115 NEW CANAAN AVE,NORWALK,CT,06856,MO 01:00 PM,TU 01:00 PM,WE 01:00 PM,TH 01:00 PM,FR 01:00 PM,SA 01:00 PM,,41.127652019,-73.434244279
0685600086,USPS COLLECTION BOX - BLUE BOX,99 NEW CANAAN AVE,NORWALK,CT,06856,MO 11:00 AM,TU 11:00 AM,WE 11:00 AM,TH 11:00 AM,FR 11:00 AM,SA 01:00 PM,,41.127084,-73.4335245
0685600121,USPS COLLECTION BOX - BLUE BOX,622 WEST,NORWALK,CT,06856,MO 02:45 PM,TU 02:45 PM,WE 02:45 PM,TH 02:45 PM,FR 02:45 PM,SA 03:00 PM,,41.113818,-73.4157135
0685600101,USPS COLLECTION BOX - BLUE BOX,24 STEVENS ST,NORWALK,CT,06856,MO 01:00 PM,TU 01:00 PM,WE 01:00 PM,TH 01:00 PM,FR 01:00 PM,SA 01:00 PM,,41.110482104,-73.4213798
0682400032,USPS COLLECTION BOX - BLUE BOX,1700 POST RD,FAIRFIELD,CT,06824,MO 01:45 PM,TU 01:45 PM,WE 01:45 PM,TH 01:45 PM,FR 01:45 PM,SA 02:00 PM,,41.1410054355,-73.261057642
0684000037,USPS COLLECTION BOX - BLUE BOX,150 ELM ST,NEW CANAAN,CT,06840,MO 12:00 PM,TU 12:00 PM,WE 12:00 PM,TH 12:00 PM,FR 12:00 PM,SA 12:00 PM,,41.146612388,-73.4949841749
0682400001,USPS COLLECTION BOX - BLUE BOX,1401 POST RD,FAIRFIELD,CT,06824,MO 02:00 PM,TU 02:00 PM,WE 02:00 PM,TH 02:00 PM,FR 02:00 PM,SA 02:00 PM,,41.141421976,-73.256360168
0682400033,USPS COLLECTION BOX - BLUE BOX,1362 POST RD,FAIRFIELD,CT,06824,MO 11:00 AM,TU 11:00 AM,WE 11:00 AM,TH 11:00 AM,FR 11:00 AM,SA 11:00 AM,,41.142104332,-73.25579372
0682400025,USPS COLLECTION BOX - BLUE BOX,1261 POST RD,FAIRFIELD,CT,06824,MO 02:00 PM,TU 02:00 PM,WE 02:00 PM,TH 02:00 PM,FR 02:00 PM,SA 02:00 PM,,41.142981615,-73.254788121
0682400045,USPS COLLECTION BOX - BLUE BOX,52 BEACH RD,FAIRFIELD,CT,06824,MO 02:45 PM,TU 02:45 PM,WE 02:45 PM,TH 02:45 PM,FR 02:45 PM,SA 02:00 PM,,41.1444959414,-73.2517436096
0685600130,USPS COLLECTION BOX - BLUE BOX,140 WOODWARD AVE,NORWALK,CT,06856,MO 10:00 AM,TU 10:00 AM,WE 10:00 AM,TH 10:00 AM,FR 10:00 AM,SA 10:00 AM,,41.085907771,-73.41402968
9410300093,USPS COLLECTION BOX - BLUE BOX,2001 MARKET ST,SAN FRANCISCO,CA,94103,MO 03:00 PM,TU 03:00 PM,WE 03:00 PM,TH 03:00 PM,FR 03:00 PM,,,37.768738454,-122.427220464
6065600102,USPS COLLECTION BOX - BLUE BOX,8350 W LAWRENCE AVE,CHICAGO,IL,60656,MO 03:00 PM,TU 03:00 PM,WE 03:00 PM,TH 03:00 PM,FR 03:00 PM,SA 10:00 AM,,41.966927011,-87.83617603
6062800131,USPS COLLECTION BOX - BLUE BOX,351 E 103RD ST,CHICAGO,IL,60628,MO 12:00 PM,TU 12:00 PM,WE 12:00 PM,TH 12:00 PM,FR 12:00 PM,SA 12:00 PM,,41.7072835234,-87.6141855
6062800093,USPS COLLECTION BOX - BLUE BOX,9801 S COTTAGE GROVE AVE,CHICAGO,IL,60628,MO 12:00 PM,TU 12:00 PM,WE 12:00 PM,TH 12:00 PM,FR 12:00 PM,SA 12:00 PM,,41.716449,-87.604173
9030500022,USPS COLLECTION BOX - PO LOBBY,3212 W 85TH ST LOBBY,INGLEWOOD,CA,90305,MO 05:00 PM,TU 05:00 PM,WE 05:00 PM,TH 05:00 PM,FR 05:00 PM,,,33.9608550819,-118.3284014825
0704700083,USPS COLLECTION BOX - BLUE BOX,101 76TH ST,NORTH BERGEN,NJ,07047,MO 12:00 PM,TU 12:00 PM,WE 12:00 PM,TH 12:00 PM,FR 12:00 PM,SA 12:00 PM,,40.7962920705,-74.0009704972
0704700028,USPS COLLECTION BOX - BLUE BOX,301 79TH ST,NORTH BERGEN,NJ,07047,MO 12:00 PM,TU 12:00 PM,WE 12:00 PM,TH 12:00 PM,FR 12:00 PM,SA 12:00 PM,,40.7996564359,-74.0030849751
0708600017,USPS COLLECTION BOX - BLUE BOX,815 BOULEVARD E,WEEHAWKEN,NJ,07086,MO 08:00 AM,TU 08:00 AM,WE 08:00 AM,TH 08:00 AM,FR 08:00 AM,SA 08:00 AM,,40.7723562689,-74.0160033474
0704700034,USPS COLLECTION BOX - BLUE BOX,8500 BOULEVARD EAST,NORTH BERGEN,NJ,07047,MO 12:00 PM,TU 12:00 PM,WE 12:00 PM,TH 12:00 PM,FR 12:00 PM,SA 12:00 PM,,40.8010547425,-73.996466945
9552100032,USPS COLLECTION BOX - BLUE BOX,1309 11TH ST,ARCATA,CA,95521,MO 02:30 PM,TU 02:30 PM,WE 02:30 PM,TH 02:30 PM,FR 02:30 PM,SA 02:30 PM,,40.8718187943,-124.0917439083
0190100004,USPS COLLECTION BOX - BLUE BOX,18 BOND ST,LYNN,MA,01901,MO 12:00 PM,TU 12:00 PM,WE 12:00 PM,TH 12:00 PM,FR 12:00 PM,SA 12:00 PM,,42.462304272,-70.953293306
6063200144,USPS COLLECTION BOX - BLUE BOX,4801 S KNOX AVE,CHICAGO,IL,60632,MO 10:00 AM,TU 10:00 AM,WE 10:00 AM,TH 10:00 AM,FR 10:00 AM,SA 12:00 PM,,41.805594,-87.7394125451
4820700085,USPS COLLECTION BOX - BLUE BOX,300 JOSEPH CAMPAU ST,DETROIT,MI,48207,MO 01:00 PM,TU 01:00 PM,WE 01:00 PM,TH 01:00 PM,FR 01:00 PM,SA 01:00 PM,,42.3388749681,-83.0192709132
6507700001,USPS COLLECTION BOX - BLUE BOX,9635 STATE ROAD CC,STEEDMAN,MO,65077,MO 04:30 PM,TU 04:30 PM,WE 04:30 PM,TH 04:30 PM,FR 04:30 PM,SA 09:45 AM,,38.7055457214,-91.8171535739
6507700002,USPS COLLECTION BOX - PO LOBBY,9635 STATE ROAD CC,STEEDMAN,MO,65077,MO 04:30 PM,TU 04:30 PM,WE 04:30 PM,TH 04:30 PM,FR 04:30 PM,SA 09:30 AM,,38.7055457214,-91.8171535739
6507700003,USPS COLLECTION BOX - PO LOBBY,9635 STATE ROAD CC,STEEDMAN,MO,65077,MO 04:30 PM,TU 04:30 PM,WE 04:30 PM,TH 04:30 PM,FR 04:30 PM,SA 09:30 AM,,38.7055457214,-91.8171535739
5653700044,USPS COLLECTION BOX - BLUE BOX,205 E HAMPDEN AVE,FERGUS FALLS,MN,56537,MO 02:30 PM,TU 02:30 PM,WE 02:30 PM,TH 02:30 PM,FR 02:30 PM,SA 02:30 PM,,46.2791400106,-96.0719399695
7859200003,USPS COLLECTION BOX - PO LOBBY,11175 MILITARY RD,SANTA MARIA,TX,78592,MO 11:45 AM,TU 11:45 AM,WE 11:45 AM,TH 11:45 AM,FR 11:45 AM,SA 10:15 AM,,26.078034507,-97.844179532
7859200004,USPS COLLECTION BOX - BLUE BOX,11175 MILITARY RD,SANTA MARIA,TX,78592,MO 11:45 AM,TU 11:45 AM,WE 11:45 AM,TH 11:45 AM,FR 11:45 AM,SA 10:15 AM,,26.078034507,-97.844179532
7859200005,USPS COLLECTION BOX - PO LOBBY,11175 MILITARY RD,SANTA MARIA,TX,78592,MO 12:00 PM,TU 12:00 PM,WE 12:00 PM,TH 12:00 PM,FR 12:00 PM,SA 10:30 AM,,26.078034507,-97.844179532
9110700017,USPS COLLECTION BOX - BLUE BOX,429 N HALSTEAD ST,PASADENA,CA,91107,MO 10:00 AM,TU 10:00 AM,WE 10:00 AM,TH 10:00 AM,FR 10:00 AM,SA 10:00 AM,,34.153694693,-118.079706505
9103000064,USPS COLLECTION BOX - BLUE BOX,1601 VIA DEL REY,SOUTH PASADENA,CA,91030,MO 10:00 AM,TU 10:00 AM,WE 10:00 AM,TH 10:00 AM,FR 10:00 AM,SA 10:00 AM,,34.1046534327,-118.1641011386
9103000033,USPS COLLECTION BOX - BLUE BOX,1499 HUNTINGTON DR,SOUTH PASADENA,CA,91030,MO 03:00 PM,TU 03:00 PM,WE 03:00 PM,TH 03:00 PM,FR 03:00 PM,SA 03:00 PM,,34.1040495465,-118.1504655
1000700046,USPS COLLECTION BOX - BLUE BOX,84 W BROADWAY,NEW YORK,NY,10007,MO 03:00 PM,TU 03:00 PM,WE 03:00 PM,TH 03:00 PM,FR 03:00 PM,SA 01:00 PM,,40.715180664,-74.009522252
1001300063,USPS COLLECTION BOX - BLUE BOX,128 W BROADWAY,NEW  YORK,NY,10013,MO 02:00 PM,TU 02:00 PM,WE 02:00 PM,TH 02:00 PM,FR 02:00 PM,SA 01:15 PM,,40.7165742155,-74.0084693167
1001300064,USPS COLLECTION BOX - BLUE BOX,229 W BROADWAY,NEW  YORK,NY,10013,MO 02:00 PM,TU 02:00 PM,WE 02:00 PM,TH 02:00 PM,FR 02:00 PM,SA 01:15 PM,,40.719303,-74.006037
0682000037,USPS COLLECTION BOX - PO LOBBY,264A HEIGHTS RD,DARIEN,CT,06820,MO 05:00 PM,TU 05:00 PM,WE 05:00 PM,TH 05:00 PM,FR 05:00 PM,SA 05:00 PM,,41.06928531,-73.4966428509
0682000038,USPS COLLECTION BOX - PO LOBBY,264A HEIGHTS RD,DARIEN,CT,06820,MO 05:00 PM,TU 05:00 PM,WE 05:00 PM,TH 05:00 PM,FR 05:00 PM,SA 03:30 PM,,41.06928531,-73.4966428509
0690200055,USPS COLLECTION BOX - BLUE BOX,810 E MAIN ST,STAMFORD,CT,06902,MO 12:00 PM,TU 12:00 PM,WE 12:00 PM,TH 12:00 PM,FR 12:00 PM,SA 12:00 PM,,41.055287579,-73.527742904
0690100041,USPS COLLECTION BOX - BLUE BOX,84 W PARK PL,STAMFORD,CT,06901,MO 01:00 PM,TU 01:00 PM,WE 01:00 PM,TH 01:00 PM,FR 01:00 PM,SA 12:00 PM,,41.053288147,-73.541321319
2120100161,USPS COLLECTION BOX - BLUE BOX,200 W MONUMENT ST,BALTIMORE,MD,21201,MO 04:00 PM,TU 04:00 PM,WE 04:00 PM,TH 04:00 PM,FR 04:00 PM,SA 04:00 PM,,39.2974923241,-76.618452688
2120100026,USPS COLLECTION BOX - BLUE BOX,99 W PRESTON ST,BALTIMORE,MD,21201,MO 09:00 AM,TU 09:00 AM,WE 09:00 AM,TH 09:00 AM,FR 09:00 AM,SA 09:00 AM,,39.30433265,-76.618574914
8730100013,USPS COLLECTION BOX - BLUE BOX,1900 E HIGHWAY 66,GALLUP,NM,87301,MO 03:30 PM,TU 03:30 PM,WE 03:30 PM,TH 03:30 PM,FR 03:30 PM,SA 03:30 PM,,35.5188582817,-108.7717027635
8730100044,USPS COLLECTION BOX - BLUE BOX,1900 E HIGHWAY 66,GALLUP,NM,87301,MO 03:30 PM,TU 03:30 PM,WE 03:30 PM,TH 03:30 PM,FR 03:30 PM,SA 03:30 PM,,35.5188582817,-108.7717027635
6310300161,USPS COLLECTION BOX - BLUE BOX,700 SAINT LOUIS UNION STA,SAINT LOUIS,MO,63103,MO 05:30 PM,TU 05:30 PM,WE 05:30 PM,TH 05:30 PM,FR 05:30 PM,SA 01:00 PM,,38.6296020426,-90.2081060828
6310300133,USPS COLLECTION BOX - BLUE BOX,2000 MARKET ST,SAINT LOUIS,MO,63103,MO 01:00 PM,TU 01:00 PM,WE 01:00 PM,TH 01:00 PM,FR 01:00 PM,SA 01:00 PM,,38.629674,-90.2095515
6310400048,USPS COLLECTION BOX - BLUE BOX,1500 S GRAND BLVD,SAINT LOUIS,MO,63104,MO 10:00 AM,TU 10:00 AM,WE 10:00 AM,TH 10:00 AM,FR 10:00 AM,SA 10:00 AM,,38.620422,-90.23823
4883600018,USPS COLLECTION BOX - BLUE BOX,6995 FOWLERVILLE RD,FOWLERVILLE,MI,48836,MO 12:00 PM,TU 12:00 PM,WE 12:00 PM,TH 12:00 PM,FR 12:00 PM,,,42.6996901962,-84.0754131267
6333600001,USPS COLLECTION BOX - BLUE BOX,309 S 1ST ST,CLARKSVILLE,MO,63336,MO 02:45 PM,TU 02:45 PM,WE 02:45 PM,TH 02:45 PM,FR 02:45 PM,SA 09:30 AM,,39.369697194,-90.902974416
6333600002,USPS COLLECTION BOX - PO LOBBY,309 S 1ST ST,CLARKSVILLE,MO,63336,MO 02:45 PM,TU 02:45 PM,WE 02:45 PM,TH 02:45 PM,FR 02:45 PM,SA 09:30 AM,,39.369697194,-90.902974416
6333600005,USPS COLLECTION BOX - PO LOBBY,309 S 1ST ST,CLARKSVILLE,MO,63336,MO 02:45 PM,TU 02:45 PM,WE 02:45 PM,TH 02:45 PM,FR 02:45 PM,,,39.369697194,-90.902974416
4901000043,USPS COLLECTION BOX - BLUE BOX,515 EASTERN AVE,ALLEGAN,MI,49010,MO 02:30 PM,TU 02:30 PM,WE 02:30 PM,TH 02:30 PM,FR 02:30 PM,SA 12:30 PM,,42.528015,-85.836437954
8020200412,USPS COLLECTION BOX - BLUE BOX,1234 15TH ST,DENVER,CO,80202,MO 04:30 PM,TU 04:30 PM,WE 04:30 PM,TH 04:30 PM,FR 04:30 PM,SA 10:30 AM,,39.747761801,-104.998093914
8020200413,USPS COLLECTION BOX - BLUE BOX,1234 15TH ST,DENVER,CO,80202,MO 04:30 PM,TU 04:30 PM,WE 04:30 PM,TH 04:30 PM,FR 04:30 PM,SA 10:30 AM,,39.747761801,-104.998093914
5987000008,USPS COLLECTION BOX - BLUE BOX,220 MAIN ST,STEVENSVILLE,MT,59870,MO 02:00 PM,TU 02:00 PM,WE 02:00 PM,TH 02:00 PM,FR 02:00 PM,SA 02:00 PM,,46.5101658651,-114.0933839003
7709200069,USPS COLLECTION BOX - BLUE BOX,4700 SHERWOOD LN,HOUSTON,TX,77092,MO 01:30 PM,TU 01:30 PM,WE 01:30 PM,TH 01:30 PM,FR 01:30 PM,,,29.814186036,-95.459407536
5902800004,USPS COLLECTION BOX - BLUE BOX,1997 NYE RD,FISHTAIL,MT,59028,MO 01:30 PM,TU 01:30 PM,WE 01:30 PM,TH 01:30 PM,FR 01:30 PM,SA 01:30 PM,,45.435466478,-109.802470416
1137900024,USPS COLLECTION BOX - BLUE BOX,7825 METROPOLITAN AVE,FLUSHING,NY,11379,MO 10:00 AM,TU 10:00 AM,WE 10:00 AM,TH 10:00 AM,FR 10:00 AM,SA 12:00 PM,,40.713221933,-73.874457728
0648800011,USPS COLLECTION BOX - BLUE BOX,1 DEPOT HILL RD,SOUTHBURY,CT,06488,MO 12:00 PM,TU 12:00 PM,WE 12:00 PM,TH 12:00 PM,FR 12:00 PM,SA 12:00 PM,,41.476162849,-73.218225534
9110700065,USPS COLLECTION BOX - BLUE BOX,3750 FAIRMEADE RD,PASADENA,CA,91107,MO 10:00 AM,TU 10:00 AM,WE 10:00 AM,TH 10:00 AM,FR 10:00 AM,SA 10:00 AM,,34.155261,-118.072188
7440100079,USPS COLLECTION BOX - BLUE BOX,934 W SHAWNEE ST,MUSKOGEE,OK,74401,MO 03:30 PM,TU 03:30 PM,WE 03:30 PM,TH 03:30 PM,FR 03:30 PM,SA 02:00 PM,,35.7703532118,-95.3701247102
7440300035,USPS COLLECTION BOX - BLUE BOX,2250 E SHAWNEE BYP,MUSKOGEE,OK,74403,MO 03:45 PM,TU 03:45 PM,WE 03:45 PM,TH 03:45 PM,FR 03:45 PM,,,35.77142187,-95.34265479
7447000004,USPS COLLECTION BOX - PO LOBBY,116 W COMMERCIAL ST,WEBBERS FALLS,OK,74470,MO 01:45 PM,TU 01:45 PM,WE 01:45 PM,TH 01:45 PM,FR 01:45 PM,SA 09:30 AM,,35.5114333165,-95.1292060205
0185200007,USPS COLLECTION BOX - BLUE BOX,370 JACKSON ST,LOWELL,MA,01852,MO 04:00 PM,TU 04:00 PM,WE 04:00 PM,TH 04:00 PM,FR 04:00 PM,,,42.640683959,-71.31487124
0185200008,USPS COLLECTION BOX - BLUE BOX,370 JACKSON ST,LOWELL,MA,01852,MO 04:00 PM,TU 04:00 PM,WE 04:00 PM,TH 04:00 PM,FR 04:00 PM,,,42.640683959,-71.31487124
2796000004,USPS COLLECTION BOX - PO LOBBY,1122 IRVIN GARRISH HWY,OCRACOKE,NC,27960,MO 12:30 PM,TU 12:30 PM,WE 12:30 PM,TH 12:30 PM,FR 12:30 PM,SA 12:30 PM,,35.1068669861,-75.9724600315
2796000006,USPS COLLECTION BOX - PO LOBBY,1122 IRVIN GARRISH HWY,OCRACOKE,NC,27960,MO 12:45 PM,TU 12:45 PM,WE 12:45 PM,TH 12:45 PM,FR 12:45 PM,SA 12:45 PM,,35.1068669861,-75.9724600315
7704000026,USPS COLLECTION BOX - BLUE BOX,5300 LANGFIELD RD,JERSEY VILLAGE,TX,77040,MO 02:30 PM,TU 02:30 PM,WE 02:30 PM,TH 02:30 PM,FR 02:30 PM,,,29.843085627,-95.501488935
0290500064,USPS COLLECTION BOX - BLUE BOX,101 DUDLEY ST,CRANSTON,RI,02905,MO 05:00 PM,TU 05:00 PM,WE 05:00 PM,TH 05:00 PM,FR 05:00 PM,SA 12:00 PM,,41.811012,-71.4121065
1045200017,USPS COLLECTION BOX - BLUE BOX,950 UNIV AVE,BRONX,NY,10452,MO 10:00 AM,TU 10:00 AM,WE 10:00 AM,TH 10:00 AM,FR 10:00 AM,SA 10:00 AM,,40.83262889,-73.931337994
1045200003,USPS COLLECTION BOX - BLUE BOX,1005 JEROME AVE,BRONX,NY,10452,MO 10:00 AM,TU 10:00 AM,WE 10:00 AM,TH 10:00 AM,FR 10:00 AM,SA 10:00 AM,,40.8315237896,-73.9263724828
1046900039,USPS COLLECTION BOX - BLUE BOX,3499 BOSTON RD,BRONX,NY,10469,MO 11:15 AM,TU 11:15 AM,WE 11:15 AM,TH 11:15 AM,FR 11:15 AM,SA 11:15 AM,,40.8769908152,-73.8465986051
1120100132,USPS COLLECTION BOX - BLUE BOX,84 FRONT ST,BROOKLYN,NY,11201,MO 05:00 PM,TU 05:00 PM,WE 05:00 PM,TH 05:00 PM,FR 05:00 PM,SA 01:00 PM,,40.702497455,-73.989160575
1120100154,USPS COLLECTION BOX - BLUE BOX,74 ADAMS ST,BROOKLYN,NY,11201,MO 03:00 PM,TU 03:00 PM,WE 03:00 PM,TH 03:00 PM,FR 03:00 PM,SA 01:00 PM,,40.701710211,-73.988637385
1046300015,USPS COLLECTION BOX - BLUE BOX,3300 BAILEY AVE,BRONX,NY,10463,MO 10:00 AM,TU 10:00 AM,WE 10:00 AM,TH 10:00 AM,FR 10:00 AM,SA 10:00 AM,,40.8795292884,-73.9011752088
0720100015,USPS COLLECTION BOX - BLUE BOX,878 E GRAND ST,ELIZABETH,NJ,07201,MO 10:00 AM,TU 10:00 AM,WE 10:00 AM,TH 10:00 AM,FR 10:00 AM,SA 10:00 AM,,40.6642887331,-74.2014971009
1179300047,USPS COLLECTION BOX - BLUE BOX,3535 JERUSALEM AVE,WANTAGH,NY,11793,MO 10:00 AM,TU 10:00 AM,WE 10:00 AM,TH 10:00 AM,FR 10:00 AM,SA 10:00 AM,,40.693968,-73.5011685
7450100022,USPS COLLECTION BOX - BLUE BOX,124 E CHOCTAW AVE,MCALESTER,OK,74501,MO 04:00 PM,TU 04:00 PM,WE 04:00 PM,TH 04:00 PM,FR 04:00 PM,,,34.9316691341,-95.7675868689
2122300016,USPS COLLECTION BOX - BLUE BOX,601 N BENTALOU ST,BALTIMORE,MD,21223,MO 09:00 AM,TU 09:00 AM,WE 09:00 AM,TH 09:00 AM,FR 09:00 AM,SA 09:00 AM,,39.295278618,-76.653228103
8644400002,USPS COLLECTION BOX - BLUE BOX,250 E PUEBLO DR,KINGMAN,AZ,86444,MO 12:30 PM,TU 12:30 PM,WE 12:30 PM,TH 12:30 PM,FR 12:30 PM,SA 12:30 PM,,36.0006719856,-114.0654549999
4946100008,USPS COLLECTION BOX - BLUE BOX,2755 W HOLTON WHITEHALL RD,WHITEHALL,MI,49461,MO 10:00 AM,TU 10:00 AM,WE 10:00 AM,TH 10:00 AM,FR 10:00 AM,SA 10:00 AM,,43.409855397,-86.307768009
1906400058,USPS COLLECTION BOX - BLUE BOX,19 N BROOKSIDE RD,SPRINGFIELD,PA,19064,MO 11:00 AM,TU 11:00 AM,WE 11:00 AM,TH 11:00 AM,FR 11:00 AM,SA 01:00 PM,,39.934611,-75.328893
1155200038,USPS COLLECTION BOX - BLUE BOX,144 CHERRY VALLEY AVE,WEST HEMPSTEAD,NY,11552,MO 10:30 AM,TU 10:30 AM,WE 10:30 AM,TH 10:30 AM,FR 10:30 AM,SA 10:30 AM,,40.7099837891,-73.6529236775
9080600098,USPS COLLECTION BOX - PO LOBBY,1920 PACIFIC AVE LOBBY,LONG BEACH,CA,90806,MO 05:00 PM,TU 05:00 PM,WE 05:00 PM,TH 05:00 PM,FR 05:00 PM,SA 05:00 PM,,33.792193844,-118.1936484031
5530600012,USPS COLLECTION BOX - BLUE BOX,1751 SOUTHCROSS DR W,BURNSVILLE,MN,55306,MO 03:00 PM,TU 03:00 PM,WE 03:00 PM,TH 03:00 PM,FR 03:00 PM,SA 09:00 AM,,44.736624,-93.301353
9411200099,USPS COLLECTION BOX - BLUE BOX,599 FRANCE AVE,SAN FRANCISCO,CA,94112,MO 11:45 AM,TU 11:45 AM,WE 11:45 AM,TH 11:45 AM,FR 11:45 AM,SA 09:30 AM,,37.7178316169,-122.4336024183
5946800002,USPS COLLECTION BOX - PO LOBBY,406 CENTRAL AVE,POWER,MT,59468,MO 11:00 AM,TU 11:00 AM,WE 11:00 AM,TH 11:00 AM,FR 11:00 AM,,,47.7159851192,-111.6864538193
5946800003,USPS COLLECTION BOX - BLUE BOX,406 CENTRAL AVE,POWER,MT,59468,MO 05:15 PM,TU 05:15 PM,WE 05:15 PM,TH 05:15 PM,FR 05:15 PM,SA 04:15 PM,,47.7159851192,-111.6864538193
1175600024,USPS COLLECTION BOX - BLUE BOX,2731 HEMPSTEAD TPKE,LEVITTOWN,NY,11756,MO 01:00 PM,TU 01:00 PM,WE 01:00 PM,TH 01:00 PM,FR 01:00 PM,SA 01:00 PM,,40.72473,-73.5347115
6063700113,USPS COLLECTION BOX - BLUE BOX,6459 S COTTAGE GROVE AVE,CHICAGO,IL,60637,MO 12:00 PM,TU 12:00 PM,WE 12:00 PM,TH 12:00 PM,FR 12:00 PM,SA 10:00 AM,,41.7775168878,-87.6057937495
5702800011,USPS COLLECTION BOX - BLUE BOX,200 W 3RD AVE,FLANDREAU,SD,57028,MO 04:15 PM,TU 04:15 PM,WE 04:15 PM,TH 04:15 PM,FR 04:15 PM,SA 04:30 PM,,44.047438191,-96.59740873
1002500028,USPS COLLECTION BOX - BLUE BOX,2599 BROADWAY,NEW  YORK,NY,10025,MO 04:00 PM,TU 04:00 PM,WE 04:00 PM,TH 04:00 PM,FR 04:00 PM,SA 11:00 AM,,40.795947,-73.9711755
1046600012,USPS COLLECTION BOX - BLUE BOX,4360 BAYCHESTER AVE,BRONX,NY,10466,MO 11:45 AM,TU 11:45 AM,WE 11:45 AM,TH 11:45 AM,FR 11:45 AM,SA 11:45 AM,,40.8990119192,-73.8459397992
4411000009,USPS COLLECTION BOX - BLUE BOX,14930 SAINT CLAIR AVE,CLEVELAND,OH,44110,MO 10:00 AM,TU 10:00 AM,WE 10:00 AM,TH 10:00 AM,FR 10:00 AM,SA 10:00 AM,,41.552721,-81.5770845
5736400001,USPS COLLECTION BOX - BLUE BOX,208 E MAIN ST,NEW HOLLAND,SD,57364,MO 01:45 PM,TU 01:45 PM,WE 01:45 PM,TH 01:45 PM,FR 01:45 PM,SA 10:45 AM,,43.427720107,-98.60643213
5736400002,USPS COLLECTION BOX - PO LOBBY,208 E MAIN ST,NEW HOLLAND,SD,57364,MO 11:30 AM,TU 11:30 AM,WE 11:30 AM,TH 11:30 AM,FR 11:30 AM,SA 11:00 AM,,43.427720107,-98.60643213
5736300001,USPS COLLECTION BOX - BLUE BOX,115 S MAIN ST,MOUNT VERNON,SD,57363,MO 03:30 PM,TU 03:30 PM,WE 03:30 PM,TH 03:30 PM,FR 03:30 PM,SA 03:30 PM,,43.709922,-98.2606499967
5736300003,USPS COLLECTION BOX - PO LOBBY,115 S MAIN ST,MOUNT VERNON,SD,57363,MO 11:00 AM,TU 11:00 AM,WE 11:00 AM,TH 11:00 AM,FR 11:00 AM,SA 09:00 AM,,43.709922,-98.2606499967
6064400068,USPS COLLECTION BOX - BLUE BOX,5001 W POLK ST,CHICAGO,IL,60644,MO 12:00 PM,TU 12:00 PM,WE 12:00 PM,TH 12:00 PM,FR 12:00 PM,SA 12:00 PM,,41.869548,-87.749415
1000100216,USPS COLLECTION BOX - BLUE BOX,245 11TH AVE,NEW YORK,NY,10001,MO 02:00 PM,TU 02:00 PM,WE 02:00 PM,TH 02:00 PM,FR 02:00 PM,SA 09:00 AM,,40.750880621,-74.00564583
1110100006,USPS COLLECTION BOX - BLUE BOX,4962 VAN DAM ST,LONG IS CITY,NY,11101,MO 02:00 PM,TU 02:00 PM,WE 02:00 PM,TH 02:00 PM,FR 02:00 PM,SA 08:00 AM,,40.738176125,-73.934905761
1110100134,USPS COLLECTION BOX - BLUE BOX,4725 34TH ST,LONG IS CITY,NY,11101,MO 02:00 PM,TU 02:00 PM,WE 02:00 PM,TH 02:00 PM,FR 02:00 PM,SA 08:00 AM,,40.741335,-73.9309275
2078300074,USPS COLLECTION BOX - BLUE BOX,9010 RIGGS RD,HYATTSVILLE,MD,20783,MO 11:20 AM,TU 11:20 AM,WE 11:20 AM,TH 11:20 AM,FR 11:20 AM,SA 12:00 PM,,39.004686,-76.9717215
1123400091,USPS COLLECTION BOX - BLUE BOX,289 WHITMAN DR,BROOKLYN,NY,11234,MO 10:00 AM,TU 10:00 AM,WE 10:00 AM,TH 10:00 AM,FR 10:00 AM,SA 08:00 AM,,40.6067850427,-73.9056606078
1122900065,USPS COLLECTION BOX - BLUE BOX,2920 QUENTIN RD,BROOKLYN,NY,11229,MO 08:00 AM,TU 08:00 AM,WE 08:00 AM,TH 08:00 AM,FR 08:00 AM,SA 07:00 AM,,40.6097832265,-73.9439456334
6913300004,USPS COLLECTION BOX - PO LOBBY,115 MYRTLE ST,DIX,NE,69133,MO 11:45 AM,TU 11:45 AM,WE 11:45 AM,TH 11:45 AM,FR 11:45 AM,SA 08:45 AM,,41.2349999409,-103.4874566639
6913300006,USPS COLLECTION BOX - PO LOBBY,115 MYRTLE ST,DIX,NE,69133,MO 11:45 AM,TU 11:45 AM,WE 11:45 AM,TH 11:45 AM,FR 11:45 AM,SA 08:45 AM,,41.2349999409,-103.4874566639
4410600026,USPS COLLECTION BOX - BLUE BOX,2156 DEMINGTON DR,CLEVELAND,OH,44106,MO 10:00 AM,TU 10:00 AM,WE 10:00 AM,TH 10:00 AM,FR 10:00 AM,SA 10:00 AM,,41.500899,-81.5853555
1002200025,USPS COLLECTION BOX - BLUE BOX,420 E 54TH ST,NEW YORK,NY,10022,MO 04:00 PM,TU 04:00 PM,WE 04:00 PM,TH 04:00 PM,FR 04:00 PM,SA 01:00 PM,,40.7559133664,-73.963291573
1137500006,USPS COLLECTION BOX - BLUE BOX,9644 72ND RD,FLUSHING,NY,11375,MO 12:00 PM,TU 12:00 PM,WE 12:00 PM,TH 12:00 PM,FR 12:00 PM,SA 10:00 AM,,40.709704988,-73.84724843
6018700084,USPS COLLECTION BOX - BLUE BOX,1701 LAKECLIFF DR,WHEATON,IL,60187,MO 02:00 PM,TU 02:00 PM,WE 02:00 PM,TH 02:00 PM,FR 02:00 PM,SA 02:00 PM,,41.8420165171,-88.0852203559
6051500103,USPS COLLECTION BOX - BLUE BOX,3200 HIGHLAND AVE,DOWNERS GROVE,IL,60515,MO 01:30 PM,TU 01:30 PM,WE 01:30 PM,TH 01:30 PM,FR 01:30 PM,SA 01:30 PM,,41.829578508,-88.010866356
0212200019,USPS COLLECTION BOX - BLUE BOX,251 BOWDOIN ST,BOSTON,MA,02122,MO 01:00 PM,TU 01:00 PM,WE 01:00 PM,TH 01:00 PM,FR 01:00 PM,SA 01:00 PM,,42.306201,-71.0667675
0212200096,USPS COLLECTION BOX - BLUE BOX,18 CLAYTON ST,BOSTON,MA,02122,MO 05:00 PM,TU 05:00 PM,WE 05:00 PM,TH 05:00 PM,FR 05:00 PM,SA 01:00 PM,,42.303918479,-71.056149376
2121600061,USPS COLLECTION BOX - BLUE BOX,2300 GARRISON BLVD,BALTIMORE,MD,21216,MO 09:00 AM,TU 09:00 AM,WE 09:00 AM,TH 09:00 AM,FR 09:00 AM,SA 09:00 AM,,39.314493,-76.677147
6013100060,USPS COLLECTION BOX - BLUE BOX,9451 BELMONT AVE,FRANKLIN PARK,IL,60131,MO 04:00 PM,TU 04:00 PM,WE 04:00 PM,TH 04:00 PM,FR 04:00 PM,SA 01:45 PM,,41.9368364879,-87.8624383622
1102000087,USPS COLLECTION BOX - BLUE BOX,445 NORTHERN BLVD,GREAT NECK,NY,11020,MO 04:00 PM,TU 04:00 PM,WE 04:00 PM,TH 04:00 PM,FR 04:00 PM,SA 12:00 PM,,40.779473845,-73.722440697
6001800011,USPS COLLECTION BOX - BLUE BOX,9501 BAY COLONY DR,DES PLAINES,IL,60018,MO 12:30 PM,TU 12:30 PM,WE 12:30 PM,TH 12:30 PM,FR 12:30 PM,SA 09:30 AM,,42.0501674788,-87.867279486
0214800121,USPS COLLECTION BOX - BLUE BOX,200 EXCHANGE ST,MALDEN,MA,02148,MO 05:00 PM,TU 05:00 PM,WE 05:00 PM,TH 05:00 PM,FR 05:00 PM,SA 01:00 PM,,42.4264210019,-71.0728369258
2346000001,USPS COLLECTION BOX - BLUE BOX,1449 TOMCAT BLVD,VA BEACH,VA,23460,MO 03:00 PM,TU 03:00 PM,WE 03:00 PM,TH 03:00 PM,FR 03:00 PM,SA 12:15 PM,,36.8039538841,-76.0148037809
0218800001,USPS COLLECTION BOX - BLUE BOX,36 FINNELL DR,WEYMOUTH,MA,02188,MO 05:00 PM,TU 05:00 PM,WE 05:00 PM,TH 05:00 PM,FR 05:00 PM,SA 01:00 PM,,42.188574121,-70.968127326
2121600026,USPS COLLECTION BOX - BLUE BOX,4501 BONNER RD,BALTIMORE,MD,21216,MO 09:00 AM,TU 09:00 AM,WE 09:00 AM,TH 09:00 AM,FR 09:00 AM,SA 09:00 AM,,39.3199514435,-76.6921670204
0221500024,USPS COLLECTION BOX - BLUE BOX,1016 COMMONWEALTH AVE,BOSTON,MA,02215,MO 04:00 PM,TU 04:00 PM,WE 04:00 PM,TH 04:00 PM,FR 04:00 PM,SA 01:00 PM,,42.3516846233,-71.1214621707
6061600035,USPS COLLECTION BOX - BLUE BOX,602 W 26TH ST,CHICAGO,IL,60616,MO 12:00 PM,TU 12:00 PM,WE 12:00 PM,TH 12:00 PM,FR 12:00 PM,SA 12:00 PM,,41.8454587661,-87.6417643613
5960100074,USPS COLLECTION BOX - BLUE BOX,855 FRONT ST,HELENA,MT,59601,MO 04:45 PM,TU 04:45 PM,WE 04:45 PM,TH 04:45 PM,FR 04:45 PM,,,46.5964419098,-112.0358157729
8260100080,USPS COLLECTION BOX - BLUE BOX,125 COLLEGE DR,CASPER,WY,82601,MO 02:00 PM,TU 02:00 PM,WE 02:00 PM,TH 02:00 PM,FR 02:00 PM,,,42.833511,-106.3254105
4412200004,USPS COLLECTION BOX - BLUE BOX,21749 PARNELL RD,SHAKER HEIGHTS,OH,44122,MO 02:00 PM,TU 02:00 PM,WE 02:00 PM,TH 02:00 PM,FR 02:00 PM,SA 02:00 PM,,41.4829007061,-81.5265324282
4411800073,USPS COLLECTION BOX - BLUE BOX,4386 SILSBY RD,CLEVELAND HTS,OH,44118,MO 10:15 AM,TU 10:15 AM,WE 10:15 AM,TH 10:15 AM,FR 10:15 AM,SA 10:15 AM,,41.497581532,-81.522000084
9403000042,USPS COLLECTION BOX - BLUE BOX,199 CALIFORNIA DR,MILLBRAE,CA,94030,MO 05:00 PM,TU 05:00 PM,WE 05:00 PM,TH 05:00 PM,FR 05:00 PM,SA 09:00 AM,,37.597455,-122.385168
1123000013,USPS COLLECTION BOX - BLUE BOX,1302 AVENUE L,BROOKLYN,NY,11230,MO 07:00 AM,TU 07:00 AM,WE 07:00 AM,TH 07:00 AM,FR 07:00 AM,SA 07:00 AM,,40.620096,-73.96218
1912400174,USPS COLLECTION BOX - BLUE BOX,1300 E HUNTING PARK AVE,PHILA,PA,19124,MO 09:00 AM,TU 09:00 AM,WE 09:00 AM,TH 09:00 AM,FR 09:00 AM,SA 09:00 AM,,40.010544,-75.102066
1913400113,USPS COLLECTION BOX - BLUE BOX,2365 E SOMERSET ST,PHILA,PA,19134,MO 12:00 PM,TU 12:00 PM,WE 12:00 PM,TH 12:00 PM,FR 12:00 PM,SA 01:00 PM,,39.9833549885,-75.1151439711
6052300020,USPS COLLECTION BOX - BLUE BOX,2625 BUTTERFIELD RD,OAKBROOK,IL,60523,MO 01:30 PM,TU 01:30 PM,WE 01:30 PM,TH 01:30 PM,FR 01:30 PM,,,41.844132,-87.9846255
1046600017,USPS COLLECTION BOX - BLUE BOX,1820 NEREID AVE,BRONX,NY,10466,MO 11:45 AM,TU 11:45 AM,WE 11:45 AM,TH 11:45 AM,FR 11:45 AM,SA 11:45 AM,,40.898277,-73.849689
1136000007,USPS COLLECTION BOX - BLUE BOX,21427 38TH AVE,FLUSHING,NY,11360,MO 11:30 AM,TU 11:30 AM,WE 11:30 AM,TH 11:30 AM,FR 11:30 AM,SA 10:00 AM,,40.767023953,-73.770215892
1141900010,USPS COLLECTION BOX - BLUE BOX,11200 107 AVE,JAMAICA,NY,11419,MO 09:30 AM,TU 09:30 AM,WE 09:30 AM,TH 09:30 AM,FR 09:30 AM,SA 09:00 AM,,40.6826492301,-73.8289971863
6064000016,USPS COLLECTION BOX - BLUE BOX,5050 N BROADWAY ST,CHICAGO,IL,60640,MO 05:00 PM,TU 05:00 PM,WE 05:00 PM,TH 05:00 PM,FR 05:00 PM,SA 12:00 PM,,41.9743639799,-87.6602599992
8940600022,USPS COLLECTION BOX - BLUE BOX,1239 COYATE CIR,FALLON,NV,89406,MO 01:15 PM,TU 01:15 PM,WE 01:15 PM,TH 01:15 PM,FR 01:15 PM,SA 01:15 PM,,39.4207707658,-118.7229942748
0253500006,USPS COLLECTION BOX - BLUE BOX,955 STATE RD,CHILMARK,MA,02535,MO 10:00 AM,TU 10:00 AM,WE 10:00 AM,TH 10:00 AM,FR 10:00 AM,SA 10:00 AM,,41.343007231,-70.8131172
1047000041,USPS COLLECTION BOX - BLUE BOX,199 E 237TH ST,BRONX,NY,10470,MO 12:00 PM,TU 12:00 PM,WE 12:00 PM,TH 12:00 PM,FR 12:00 PM,SA 12:00 PM,,40.8986498392,-73.870931208
0213400008,USPS COLLECTION BOX - BLUE BOX,39 LINDEN ST,ALLSTON,MA,02134,MO 01:00 PM,TU 01:00 PM,WE 01:00 PM,TH 01:00 PM,FR 01:00 PM,SA 10:00 AM,,42.354229212,-71.130336031
0213500002,USPS COLLECTION BOX - BLUE BOX,77 WARREN ST,BRIGHTON,MA,02135,MO 05:00 PM,TU 05:00 PM,WE 05:00 PM,TH 05:00 PM,FR 05:00 PM,SA 03:00 PM,,42.3494063569,-71.1425851496
9977700001,USPS COLLECTION BOX - PO LOBBY,100 FRONT ST,TANANA,AK,99777,MO 10:00 AM,TU 10:00 AM,WE 10:00 AM,TH 10:00 AM,FR 10:00 AM,,,65.1706012446,-152.0803448312
9972100000,USPS COLLECTION BOX - BLUE BOX,1077 SUMMER ST,ANAKTUVUK PASS,AK,99721,MO 11:00 AM,TU 11:00 AM,WE 11:00 AM,TH 11:00 AM,FR 11:00 AM,,,68.1400445075,-151.7341807746
9972100001,USPS COLLECTION BOX - PO LOBBY,1077 SUMMER ST,ANAKTUVUK PASS,AK,99721,MO 11:00 AM,TU 11:00 AM,WE 11:00 AM,TH 11:00 AM,FR 11:00 AM,,,68.1400445075,-151.7341807746
0221000086,USPS COLLECTION BOX - BLUE BOX,88 BLACK FALCON AVE,BOSTON,MA,02210,MO 05:00 PM,TU 05:00 PM,WE 05:00 PM,TH 05:00 PM,FR 05:00 PM,,,42.3443234735,-71.022529446
